{"type": "FeatureCollection", "features": [{"type": "Feature", "geometry": {"type": "Point", "coordinates": [77.05211318604604, 28.477280606604918]}, "properties": {"id": "DMP5-001", "project_id": "DMP5", "project_name": "Delhi Metro Phase 5", "latitude": 28.477280606604918, "longitude": 77.05211318604604, "area_hectares": 13.35, "land_type": "residential", "ownership_status": "disputed", "acquisition_status": "completed", "compensation_status": "disputed", "dispute_status": "court_case", "ownership_risk": 9, "legal_risk": 8, "compensation_risk": 7, "environmental_risk": 10, "social_risk": 8, "delay_risk": 7, "risk_score": 82.0, "risk_level": "Critical", "district": "New Delhi", "state": "Delhi", "owner_reference": "OWNER-DMP5-001", "notes": "Prototype Dataset", "polygon_coords": [[77.05111318604604, 28.476280606604917], [77.05311318604605, 28.476280606604917], [77.05311318604605, 28.47828060660492], [77.05111318604604, 28.47828060660492], [77.05111318604604, 28.476280606604917]]}}, {"type": "Feature", "geometry": {"type": "Point", "coordinates": [77.21916189189588, 28.502247187570248]}, "properties": {"id": "DMP5-002", "project_id": "DMP5", "project_name": "Delhi Metro Phase 5", "latitude": 28.502247187570248, "longitude": 77.21916189189588, "area_hectares": 5.56, "land_type": "commercial", "ownership_status": "disputed", "acquisition_status": "not_started", "compensation_status": "disputed", "dispute_status": "court_case", "ownership_risk": 10, "legal_risk": 10, "compensation_risk": 7, "environmental_risk": 9, "social_risk": 8, "delay_risk": 10, "risk_score": 90.5, "risk_level": "Critical", "district": "New Delhi", "state": "Delhi", "owner_reference": "OWNER-DMP5-002", "notes": "Prototype Dataset", "polygon_coords": [[77.21816189189587, 28.501247187570247], [77.22016189189588, 28.501247187570247], [77.22016189189588, 28.50324718757025], [77.21816189189587, 28.50324718757025], [77.21816189189587, 28.501247187570247]]}}, {"type": "Feature", "geometry": {"type": "Point", "coordinates": [77.12843348622344, 28.47666557823883]}, "properties": {"id": "DMP5-003", "project_id": "DMP5", "project_name": "Delhi Metro Phase 5", "latitude": 28.47666557823883, "longitude": 77.12843348622344, "area_hectares": 3.41, "land_type": "forest", "ownership_status": "private_multiple", "acquisition_status": "not_started", "compensation_status": "not_assessed", "dispute_status": "minor_dispute", "ownership_risk": 6, "legal_risk": 5, "compensation_risk": 8, "environmental_risk": 7, "social_risk": 5, "delay_risk": 7, "risk_score": 63.0, "risk_level": "High", "district": "New Delhi", "state": "Delhi", "owner_reference": "OWNER-DMP5-003", "notes": "Prototype Dataset", "polygon_coords": [[77.12743348622344, 28.47566557823883], [77.12943348622345, 28.47566557823883], [77.12943348622345, 28.47766557823883], [77.12743348622344, 28.47766557823883], [77.12743348622344, 28.47566557823883]]}}, {"type": "Feature", "geometry": {"type": "Point", "coordinates": [77.39830352807053, 28.64037021992597]}, "properties": {"id": "DMP5-004", "project_id": "DMP5", "project_name": "Delhi Metro Phase 5", "latitude": 28.64037021992597, "longitude": 77.39830352807053, "area_hectares": 8.29, "land_type": "agricultural", "ownership_status": "government", "acquisition_status": "in_progress", "compensation_status": "approved", "dispute_status": "no_dispute", "ownership_risk": 1, "legal_risk": 1, "compensation_risk": 2, "environmental_risk": 2, "social_risk": 0, "delay_risk": 0, "risk_score": 11.5, "risk_level": "Low", "district": "New Delhi", "state": "Delhi", "owner_reference": "OWNER-DMP5-004", "notes": "Prototype Dataset", "polygon_coords": [[77.39730352807052, 28.63937021992597], [77.39930352807053, 28.63937021992597], [77.39930352807053, 28.64137021992597], [77.39730352807052, 28.64137021992597], [77.39730352807052, 28.63937021992597]]}}, {"type": "Feature", "geometry": {"type": "Point", "coordinates": [77.13498330482625, 28.421957899036002]}, "properties": {"id": "DMP5-005", "project_id": "DMP5", "project_name": "Delhi Metro Phase 5", "latitude": 28.421957899036002, "longitude": 77.13498330482625, "area_hectares": 10.88, "land_type": "forest", "ownership_status": "disputed", "acquisition_status": "completed", "compensation_status": "disputed", "dispute_status": "court_case", "ownership_risk": 7, "legal_risk": 10, "compensation_risk": 9, "environmental_risk": 10, "social_risk": 9, "delay_risk": 8, "risk_score": 89.0, "risk_level": "Critical", "district": "New Delhi", "state": "Delhi", "owner_reference": "OWNER-DMP5-005", "notes": "Prototype Dataset", "polygon_coords": [[77.13398330482624, 28.420957899036], [77.13598330482625, 28.420957899036], [77.13598330482625, 28.422957899036003], [77.13398330482624, 28.422957899036003], [77.13398330482624, 28.420957899036]]}}, {"type": "Feature", "geometry": {"type": "Point", "coordinates": [77.26812645194654, 28.45656718503039]}, "properties": {"id": "DMP5-006", "project_id": "DMP5", "project_name": "Delhi Metro Phase 5", "latitude": 28.45656718503039, "longitude": 77.26812645194654, "area_hectares": 7.59, "land_type": "industrial", "ownership_status": "private_multiple", "acquisition_status": "completed", "compensation_status": "disputed", "dispute_status": "minor_dispute", "ownership_risk": 8, "legal_risk": 7, "compensation_risk": 5, "environmental_risk": 7, "social_risk": 6, "delay_risk": 6, "risk_score": 66.0, "risk_level": "High", "district": "New Delhi", "state": "Delhi", "owner_reference": "OWNER-DMP5-006", "notes": "Prototype Dataset", "polygon_coords": [[77.26712645194654, 28.45556718503039], [77.26912645194655, 28.45556718503039], [77.26912645194655, 28.457567185030392], [77.26712645194654, 28.457567185030392], [77.26712645194654, 28.45556718503039]]}}, {"type": "Feature", "geometry": {"type": "Point", "coordinates": [77.00576423010146, 28.40745010854769]}, "properties": {"id": "DMP5-007", "project_id": "DMP5", "project_name": "Delhi Metro Phase 5", "latitude": 28.40745010854769, "longitude": 77.00576423010146, "area_hectares": 4.12, "land_type": "forest", "ownership_status": "private_single", "acquisition_status": "lapsed", "compensation_status": "assessed", "dispute_status": "no_dispute", "ownership_risk": 6, "legal_risk": 6, "compensation_risk": 4, "environmental_risk": 5, "social_risk": 5, "delay_risk": 6, "risk_score": 53.5, "risk_level": "High", "district": "New Delhi", "state": "Delhi", "owner_reference": "OWNER-DMP5-007", "notes": "Prototype Dataset", "polygon_coords": [[77.00476423010146, 28.406450108547688], [77.00676423010147, 28.406450108547688], [77.00676423010147, 28.40845010854769], [77.00476423010146, 28.40845010854769], [77.00476423010146, 28.406450108547688]]}}, {"type": "Feature", "geometry": {"type": "Point", "coordinates": [77.33461410448635, 28.619500453290907]}, "properties": {"id": "DMP5-008", "project_id": "DMP5", "project_name": "Delhi Metro Phase 5", "latitude": 28.619500453290907, "longitude": 77.33461410448635, "area_hectares": 5.74, "land_type": "commercial", "ownership_status": "government", "acquisition_status": "completed", "compensation_status": "fully_paid", "dispute_status": "no_dispute", "ownership_risk": 1, "legal_risk": 2, "compensation_risk": 2, "environmental_risk": 3, "social_risk": 0, "delay_risk": 2, "risk_score": 17.5, "risk_level": "Low", "district": "New Delhi", "state": "Delhi", "owner_reference": "OWNER-DMP5-008", "notes": "Prototype Dataset", "polygon_coords": [[77.33361410448634, 28.618500453290906], [77.33561410448635, 28.618500453290906], [77.33561410448635, 28.62050045329091], [77.33361410448634, 28.62050045329091], [77.33361410448634, 28.618500453290906]]}}, {"type": "Feature", "geometry": {"type": "Point", "coordinates": [77.02628939482497, 28.76068311246684]}, "properties": {"id": "DMP5-009", "project_id": "DMP5", "project_name": "Delhi Metro Phase 5", "latitude": 28.76068311246684, "longitude": 77.02628939482497, "area_hectares": 1.43, "land_type": "commercial", "ownership_status": "disputed", "acquisition_status": "not_started", "compensation_status": "disputed", "dispute_status": "court_case", "ownership_risk": 10, "legal_risk": 7, "compensation_risk": 8, "environmental_risk": 8, "social_risk": 7, "delay_risk": 7, "risk_score": 79.5, "risk_level": "Critical", "district": "New Delhi", "state": "Delhi", "owner_reference": "OWNER-DMP5-009", "notes": "Prototype Dataset", "polygon_coords": [[77.02528939482497, 28.75968311246684], [77.02728939482498, 28.75968311246684], [77.02728939482498, 28.76168311246684], [77.02528939482497, 28.76168311246684], [77.02528939482497, 28.75968311246684]]}}, {"type": "Feature", "geometry": {"type": "Point", "coordinates": [77.1535851589779, 28.789055879081058]}, "properties": {"id": "DMP5-010", "project_id": "DMP5", "project_name": "Delhi Metro Phase 5", "latitude": 28.789055879081058, "longitude": 77.1535851589779, "area_hectares": 8.62, "land_type": "industrial", "ownership_status": "private_single", "acquisition_status": "completed", "compensation_status": "assessed", "dispute_status": "no_dispute", "ownership_risk": 6, "legal_risk": 5, "compensation_risk": 2, "environmental_risk": 5, "social_risk": 4, "delay_risk": 4, "risk_score": 44.0, "risk_level": "Medium", "district": "New Delhi", "state": "Delhi", "owner_reference": "OWNER-DMP5-010", "notes": "Prototype Dataset", "polygon_coords": [[77.1525851589779, 28.788055879081057], [77.15458515897791, 28.788055879081057], [77.15458515897791, 28.79005587908106], [77.1525851589779, 28.79005587908106], [77.1525851589779, 28.788055879081057]]}}, {"type": "Feature", "geometry": {"type": "Point", "coordinates": [77.03581561984127, 28.514913013181236]}, "properties": {"id": "DMP5-011", "project_id": "DMP5", "project_name": "Delhi Metro Phase 5", "latitude": 28.514913013181236, "longitude": 77.03581561984127, "area_hectares": 5.72, "land_type": "residential", "ownership_status": "government", "acquisition_status": "disputed", "compensation_status": "fully_paid", "dispute_status": "no_dispute", "ownership_risk": 1, "legal_risk": 2, "compensation_risk": 3, "environmental_risk": 0, "social_risk": 3, "delay_risk": 2, "risk_score": 18.0, "risk_level": "Low", "district": "New Delhi", "state": "Delhi", "owner_reference": "OWNER-DMP5-011", "notes": "Prototype Dataset", "polygon_coords": [[77.03481561984127, 28.513913013181234], [77.03681561984128, 28.513913013181234], [77.03681561984128, 28.515913013181237], [77.03481561984127, 28.515913013181237], [77.03481561984127, 28.513913013181234]]}}, {"type": "Feature", "geometry": {"type": "Point", "coordinates": [77.37047064347315, 28.415204168866552]}, "properties": {"id": "DMP5-012", "project_id": "DMP5", "project_name": "Delhi Metro Phase 5", "latitude": 28.415204168866552, "longitude": 77.37047064347315, "area_hectares": 2.56, "land_type": "residential", "ownership_status": "private_multiple", "acquisition_status": "completed", "compensation_status": "disputed", "dispute_status": "major_dispute", "ownership_risk": 7, "legal_risk": 6, "compensation_risk": 6, "environmental_risk": 9, "social_risk": 5, "delay_risk": 5, "risk_score": 64.5, "risk_level": "High", "district": "New Delhi", "state": "Delhi", "owner_reference": "OWNER-DMP5-012", "notes": "Prototype Dataset", "polygon_coords": [[77.36947064347315, 28.41420416886655], [77.37147064347316, 28.41420416886655], [77.37147064347316, 28.416204168866553], [77.36947064347315, 28.416204168866553], [77.36947064347315, 28.41420416886655]]}}, {"type": "Feature", "geometry": {"type": "Point", "coordinates": [77.17585440179545, 28.714090545013864]}, "properties": {"id": "DMP5-013", "project_id": "DMP5", "project_name": "Delhi Metro Phase 5", "latitude": 28.714090545013864, "longitude": 77.17585440179545, "area_hectares": 14.58, "land_type": "residential", "ownership_status": "government", "acquisition_status": "not_started", "compensation_status": "fully_paid", "dispute_status": "no_dispute", "ownership_risk": 2, "legal_risk": 0, "compensation_risk": 2, "environmental_risk": 2, "social_risk": 1, "delay_risk": 2, "risk_score": 14.0, "risk_level": "Low", "district": "New Delhi", "state": "Delhi", "owner_reference": "OWNER-DMP5-013", "notes": "Prototype Dataset", "polygon_coords": [[77.17485440179544, 28.713090545013863], [77.17685440179545, 28.713090545013863], [77.17685440179545, 28.715090545013865], [77.17485440179544, 28.715090545013865], [77.17485440179544, 28.713090545013863]]}}, {"type": "Feature", "geometry": {"type": "Point", "coordinates": [77.10252162831314, 28.7938578227554]}, "properties": {"id": "DMP5-014", "project_id": "DMP5", "project_name": "Delhi Metro Phase 5", "latitude": 28.7938578227554, "longitude": 77.10252162831314, "area_hectares": 5.93, "land_type": "residential", "ownership_status": "private_multiple", "acquisition_status": "lapsed", "compensation_status": "disputed", "dispute_status": "major_dispute", "ownership_risk": 8, "legal_risk": 9, "compensation_risk": 5, "environmental_risk": 8, "social_risk": 9, "delay_risk": 5, "risk_score": 74.5, "risk_level": "High", "district": "New Delhi", "state": "Delhi", "owner_reference": "OWNER-DMP5-014", "notes": "Prototype Dataset", "polygon_coords": [[77.10152162831314, 28.792857822755398], [77.10352162831315, 28.792857822755398], [77.10352162831315, 28.7948578227554], [77.10152162831314, 28.7948578227554], [77.10152162831314, 28.792857822755398]]}}, {"type": "Feature", "geometry": {"type": "Point", "coordinates": [77.26700662856948, 28.49711619609996]}, "properties": {"id": "DMP5-015", "project_id": "DMP5", "project_name": "Delhi Metro Phase 5", "latitude": 28.49711619609996, "longitude": 77.26700662856948, "area_hectares": 12.03, "land_type": "commercial", "ownership_status": "disputed", "acquisition_status": "completed", "compensation_status": "disputed", "dispute_status": "court_case", "ownership_risk": 7, "legal_risk": 9, "compensation_risk": 9, "environmental_risk": 7, "social_risk": 9, "delay_risk": 8, "risk_score": 82.0, "risk_level": "Critical", "district": "New Delhi", "state": "Delhi", "owner_reference": "OWNER-DMP5-015", "notes": "Prototype Dataset", "polygon_coords": [[77.26600662856947, 28.49611619609996], [77.26800662856948, 28.49611619609996], [77.26800662856948, 28.49811619609996], [77.26600662856947, 28.49811619609996], [77.26600662856947, 28.49611619609996]]}}, {"type": "Feature", "geometry": {"type": "Point", "coordinates": [77.31101494011064, 28.429159468939837]}, "properties": {"id": "DMP5-016", "project_id": "DMP5", "project_name": "Delhi Metro Phase 5", "latitude": 28.429159468939837, "longitude": 77.31101494011064, "area_hectares": 11.25, "land_type": "commercial", "ownership_status": "private_single", "acquisition_status": "disputed", "compensation_status": "partially_paid", "dispute_status": "no_dispute", "ownership_risk": 2, "legal_risk": 5, "compensation_risk": 5, "environmental_risk": 6, "social_risk": 5, "delay_risk": 2, "risk_score": 42.5, "risk_level": "Medium", "district": "New Delhi", "state": "Delhi", "owner_reference": "OWNER-DMP5-016", "notes": "Prototype Dataset", "polygon_coords": [[77.31001494011063, 28.428159468939835], [77.31201494011064, 28.428159468939835], [77.31201494011064, 28.430159468939838], [77.31001494011063, 28.430159468939838], [77.31001494011063, 28.428159468939835]]}}, {"type": "Feature", "geometry": {"type": "Point", "coordinates": [77.16042451911034, 28.441185482629454]}, "properties": {"id": "DMP5-017", "project_id": "DMP5", "project_name": "Delhi Metro Phase 5", "latitude": 28.441185482629454, "longitude": 77.16042451911034, "area_hectares": 5.06, "land_type": "residential", "ownership_status": "private_single", "acquisition_status": "disputed", "compensation_status": "approved", "dispute_status": "no_dispute", "ownership_risk": 1, "legal_risk": 2, "compensation_risk": 0, "environmental_risk": 1, "social_risk": 3, "delay_risk": 0, "risk_score": 11.5, "risk_level": "Low", "district": "New Delhi", "state": "Delhi", "owner_reference": "OWNER-DMP5-017", "notes": "Prototype Dataset", "polygon_coords": [[77.15942451911033, 28.440185482629452], [77.16142451911034, 28.440185482629452], [77.16142451911034, 28.442185482629455], [77.15942451911033, 28.442185482629455], [77.15942451911033, 28.440185482629452]]}}, {"type": "Feature", "geometry": {"type": "Point", "coordinates": [77.39789656518553, 28.531135417889683]}, "properties": {"id": "DMP5-018", "project_id": "DMP5", "project_name": "Delhi Metro Phase 5", "latitude": 28.531135417889683, "longitude": 77.39789656518553, "area_hectares": 13.73, "land_type": "agricultural", "ownership_status": "disputed", "acquisition_status": "completed", "compensation_status": "disputed", "dispute_status": "court_case", "ownership_risk": 8, "legal_risk": 7, "compensation_risk": 7, "environmental_risk": 10, "social_risk": 8, "delay_risk": 8, "risk_score": 78.5, "risk_level": "Critical", "district": "New Delhi", "state": "Delhi", "owner_reference": "OWNER-DMP5-018", "notes": "Prototype Dataset", "polygon_coords": [[77.39689656518553, 28.53013541788968], [77.39889656518554, 28.53013541788968], [77.39889656518554, 28.532135417889684], [77.39689656518553, 28.532135417889684], [77.39689656518553, 28.53013541788968]]}}, {"type": "Feature", "geometry": {"type": "Point", "coordinates": [77.30162719800165, 28.59574746250692]}, "properties": {"id": "DMP5-019", "project_id": "DMP5", "project_name": "Delhi Metro Phase 5", "latitude": 28.59574746250692, "longitude": 77.30162719800165, "area_hectares": 4.46, "land_type": "forest", "ownership_status": "private_single", "acquisition_status": "in_progress", "compensation_status": "assessed", "dispute_status": "no_dispute", "ownership_risk": 6, "legal_risk": 3, "compensation_risk": 4, "environmental_risk": 5, "social_risk": 5, "delay_risk": 2, "risk_score": 42.0, "risk_level": "Medium", "district": "New Delhi", "state": "Delhi", "owner_reference": "OWNER-DMP5-019", "notes": "Prototype Dataset", "polygon_coords": [[77.30062719800165, 28.59474746250692], [77.30262719800166, 28.59474746250692], [77.30262719800166, 28.596747462506922], [77.30062719800165, 28.596747462506922], [77.30062719800165, 28.59474746250692]]}}, {"type": "Feature", "geometry": {"type": "Point", "coordinates": [77.26653272358242, 28.642596880633615]}, "properties": {"id": "DMP5-020", "project_id": "DMP5", "project_name": "Delhi Metro Phase 5", "latitude": 28.642596880633615, "longitude": 77.26653272358242, "area_hectares": 14.7, "land_type": "industrial", "ownership_status": "private_single", "acquisition_status": "not_started", "compensation_status": "assessed", "dispute_status": "minor_dispute", "ownership_risk": 3, "legal_risk": 5, "compensation_risk": 3, "environmental_risk": 5, "social_risk": 6, "delay_risk": 6, "risk_score": 44.0, "risk_level": "Medium", "district": "New Delhi", "state": "Delhi", "owner_reference": "OWNER-DMP5-020", "notes": "Prototype Dataset", "polygon_coords": [[77.26553272358241, 28.641596880633614], [77.26753272358242, 28.641596880633614], [77.26753272358242, 28.643596880633616], [77.26553272358241, 28.643596880633616], [77.26553272358241, 28.641596880633614]]}}, {"type": "Feature", "geometry": {"type": "Point", "coordinates": [77.31148718735164, 28.582596115594665]}, "properties": {"id": "DMP5-021", "project_id": "DMP5", "project_name": "Delhi Metro Phase 5", "latitude": 28.582596115594665, "longitude": 77.31148718735164, "area_hectares": 4.55, "land_type": "residential", "ownership_status": "private_single", "acquisition_status": "not_started", "compensation_status": "approved", "dispute_status": "no_dispute", "ownership_risk": 1, "legal_risk": 0, "compensation_risk": 0, "environmental_risk": 3, "social_risk": 3, "delay_risk": 0, "risk_score": 9.5, "risk_level": "Low", "district": "New Delhi", "state": "Delhi", "owner_reference": "OWNER-DMP5-021", "notes": "Prototype Dataset", "polygon_coords": [[77.31048718735164, 28.581596115594664], [77.31248718735165, 28.581596115594664], [77.31248718735165, 28.583596115594666], [77.31048718735164, 28.583596115594666], [77.31048718735164, 28.581596115594664]]}}, {"type": "Feature", "geometry": {"type": "Point", "coordinates": [77.34013105700129, 28.68154881032827]}, "properties": {"id": "DMP5-022", "project_id": "DMP5", "project_name": "Delhi Metro Phase 5", "latitude": 28.68154881032827, "longitude": 77.34013105700129, "area_hectares": 5.96, "land_type": "commercial", "ownership_status": "private_multiple", "acquisition_status": "completed", "compensation_status": "disputed", "dispute_status": "minor_dispute", "ownership_risk": 9, "legal_risk": 5, "compensation_risk": 6, "environmental_risk": 9, "social_risk": 8, "delay_risk": 9, "risk_score": 73.0, "risk_level": "High", "district": "New Delhi", "state": "Delhi", "owner_reference": "OWNER-DMP5-022", "notes": "Prototype Dataset", "polygon_coords": [[77.33913105700128, 28.68054881032827], [77.34113105700129, 28.68054881032827], [77.34113105700129, 28.68254881032827], [77.33913105700128, 28.68254881032827], [77.33913105700128, 28.68054881032827]]}}, {"type": "Feature", "geometry": {"type": "Point", "coordinates": [77.09817624446151, 28.424158476089477]}, "properties": {"id": "DMP5-023", "project_id": "DMP5", "project_name": "Delhi Metro Phase 5", "latitude": 28.424158476089477, "longitude": 77.09817624446151, "area_hectares": 11.12, "land_type": "forest", "ownership_status": "private_single", "acquisition_status": "lapsed", "compensation_status": "partially_paid", "dispute_status": "no_dispute", "ownership_risk": 4, "legal_risk": 3, "compensation_risk": 5, "environmental_risk": 2, "social_risk": 5, "delay_risk": 2, "risk_score": 35.5, "risk_level": "Medium", "district": "New Delhi", "state": "Delhi", "owner_reference": "OWNER-DMP5-023", "notes": "Prototype Dataset", "polygon_coords": [[77.09717624446151, 28.423158476089476], [77.09917624446152, 28.423158476089476], [77.09917624446152, 28.42515847608948], [77.09717624446151, 28.42515847608948], [77.09717624446151, 28.423158476089476]]}}, {"type": "Feature", "geometry": {"type": "Point", "coordinates": [77.3233991330469, 28.5668328826632]}, "properties": {"id": "DMP5-024", "project_id": "DMP5", "project_name": "Delhi Metro Phase 5", "latitude": 28.5668328826632, "longitude": 77.3233991330469, "area_hectares": 5.36, "land_type": "residential", "ownership_status": "private_single", "acquisition_status": "lapsed", "compensation_status": "assessed", "dispute_status": "minor_dispute", "ownership_risk": 4, "legal_risk": 6, "compensation_risk": 2, "environmental_risk": 5, "social_risk": 5, "delay_risk": 4, "risk_score": 43.5, "risk_level": "Medium", "district": "New Delhi", "state": "Delhi", "owner_reference": "OWNER-DMP5-024", "notes": "Prototype Dataset", "polygon_coords": [[77.3223991330469, 28.565832882663198], [77.32439913304691, 28.565832882663198], [77.32439913304691, 28.5678328826632], [77.3223991330469, 28.5678328826632], [77.3223991330469, 28.565832882663198]]}}, {"type": "Feature", "geometry": {"type": "Point", "coordinates": [77.33228690513455, 28.713103693157517]}, "properties": {"id": "DMP5-025", "project_id": "DMP5", "project_name": "Delhi Metro Phase 5", "latitude": 28.713103693157517, "longitude": 77.33228690513455, "area_hectares": 3.79, "land_type": "residential", "ownership_status": "private_single", "acquisition_status": "disputed", "compensation_status": "assessed", "dispute_status": "no_dispute", "ownership_risk": 3, "legal_risk": 4, "compensation_risk": 3, "environmental_risk": 5, "social_risk": 6, "delay_risk": 5, "risk_score": 40.5, "risk_level": "Medium", "district": "New Delhi", "state": "Delhi", "owner_reference": "OWNER-DMP5-025", "notes": "Prototype Dataset", "polygon_coords": [[77.33128690513455, 28.712103693157516], [77.33328690513456, 28.712103693157516], [77.33328690513456, 28.71410369315752], [77.33128690513455, 28.71410369315752], [77.33128690513455, 28.712103693157516]]}}, {"type": "Feature", "geometry": {"type": "Point", "coordinates": [77.20322590993845, 28.430218625085622]}, "properties": {"id": "DMP5-026", "project_id": "DMP5", "project_name": "Delhi Metro Phase 5", "latitude": 28.430218625085622, "longitude": 77.20322590993845, "area_hectares": 9.63, "land_type": "commercial", "ownership_status": "private_single", "acquisition_status": "lapsed", "compensation_status": "partially_paid", "dispute_status": "minor_dispute", "ownership_risk": 6, "legal_risk": 2, "compensation_risk": 5, "environmental_risk": 6, "social_risk": 5, "delay_risk": 6, "risk_score": 47.0, "risk_level": "Medium", "district": "New Delhi", "state": "Delhi", "owner_reference": "OWNER-DMP5-026", "notes": "Prototype Dataset", "polygon_coords": [[77.20222590993845, 28.42921862508562], [77.20422590993846, 28.42921862508562], [77.20422590993846, 28.431218625085624], [77.20222590993845, 28.431218625085624], [77.20222590993845, 28.42921862508562]]}}, {"type": "Feature", "geometry": {"type": "Point", "coordinates": [77.08429797035326, 28.647547552979745]}, "properties": {"id": "DMP5-027", "project_id": "DMP5", "project_name": "Delhi Metro Phase 5", "latitude": 28.647547552979745, "longitude": 77.08429797035326, "area_hectares": 10.32, "land_type": "forest", "ownership_status": "private_single", "acquisition_status": "lapsed", "compensation_status": "approved", "dispute_status": "no_dispute", "ownership_risk": 1, "legal_risk": 0, "compensation_risk": 2, "environmental_risk": 0, "social_risk": 1, "delay_risk": 2, "risk_score": 9.0, "risk_level": "Low", "district": "New Delhi", "state": "Delhi", "owner_reference": "OWNER-DMP5-027", "notes": "Prototype Dataset", "polygon_coords": [[77.08329797035326, 28.646547552979744], [77.08529797035327, 28.646547552979744], [77.08529797035327, 28.648547552979746], [77.08329797035326, 28.648547552979746], [77.08329797035326, 28.646547552979744]]}}, {"type": "Feature", "geometry": {"type": "Point", "coordinates": [77.08729711513004, 28.658761329017157]}, "properties": {"id": "DMP5-028", "project_id": "DMP5", "project_name": "Delhi Metro Phase 5", "latitude": 28.658761329017157, "longitude": 77.08729711513004, "area_hectares": 9.36, "land_type": "agricultural", "ownership_status": "private_single", "acquisition_status": "lapsed", "compensation_status": "partially_paid", "dispute_status": "no_dispute", "ownership_risk": 5, "legal_risk": 2, "compensation_risk": 2, "environmental_risk": 6, "social_risk": 5, "delay_risk": 2, "risk_score": 35.0, "risk_level": "Medium", "district": "New Delhi", "state": "Delhi", "owner_reference": "OWNER-DMP5-028", "notes": "Prototype Dataset", "polygon_coords": [[77.08629711513004, 28.657761329017156], [77.08829711513005, 28.657761329017156], [77.08829711513005, 28.659761329017158], [77.08629711513004, 28.659761329017158], [77.08629711513004, 28.657761329017156]]}}, {"type": "Feature", "geometry": {"type": "Point", "coordinates": [77.14403078937323, 28.66271297588821]}, "properties": {"id": "DMP5-029", "project_id": "DMP5", "project_name": "Delhi Metro Phase 5", "latitude": 28.66271297588821, "longitude": 77.14403078937323, "area_hectares": 6.37, "land_type": "commercial", "ownership_status": "government", "acquisition_status": "disputed", "compensation_status": "fully_paid", "dispute_status": "no_dispute", "ownership_risk": 0, "legal_risk": 0, "compensation_risk": 1, "environmental_risk": 1, "social_risk": 3, "delay_risk": 1, "risk_score": 7.5, "risk_level": "Low", "district": "New Delhi", "state": "Delhi", "owner_reference": "OWNER-DMP5-029", "notes": "Prototype Dataset", "polygon_coords": [[77.14303078937323, 28.661712975888207], [77.14503078937324, 28.661712975888207], [77.14503078937324, 28.66371297588821], [77.14303078937323, 28.66371297588821], [77.14303078937323, 28.661712975888207]]}}, {"type": "Feature", "geometry": {"type": "Point", "coordinates": [77.3299420574706, 28.5210398340771]}, "properties": {"id": "DMP5-030", "project_id": "DMP5", "project_name": "Delhi Metro Phase 5", "latitude": 28.5210398340771, "longitude": 77.3299420574706, "area_hectares": 7.83, "land_type": "commercial", "ownership_status": "private_multiple", "acquisition_status": "in_progress", "compensation_status": "disputed", "dispute_status": "major_dispute", "ownership_risk": 6, "legal_risk": 6, "compensation_risk": 9, "environmental_risk": 6, "social_risk": 7, "delay_risk": 6, "risk_score": 67.0, "risk_level": "High", "district": "New Delhi", "state": "Delhi", "owner_reference": "OWNER-DMP5-030", "notes": "Prototype Dataset", "polygon_coords": [[77.3289420574706, 28.5200398340771], [77.33094205747061, 28.5200398340771], [77.33094205747061, 28.522039834077102], [77.3289420574706, 28.522039834077102], [77.3289420574706, 28.5200398340771]]}}, {"type": "Feature", "geometry": {"type": "Point", "coordinates": [77.2727573077323, 28.705817670525267]}, "properties": {"id": "DMP5-031", "project_id": "DMP5", "project_name": "Delhi Metro Phase 5", "latitude": 28.705817670525267, "longitude": 77.2727573077323, "area_hectares": 2.59, "land_type": "industrial", "ownership_status": "private_single", "acquisition_status": "lapsed", "compensation_status": "approved", "dispute_status": "no_dispute", "ownership_risk": 2, "legal_risk": 2, "compensation_risk": 2, "environmental_risk": 2, "social_risk": 0, "delay_risk": 2, "risk_score": 18.0, "risk_level": "Low", "district": "New Delhi", "state": "Delhi", "owner_reference": "OWNER-DMP5-031", "notes": "Prototype Dataset", "polygon_coords": [[77.2717573077323, 28.704817670525266], [77.27375730773231, 28.704817670525266], [77.27375730773231, 28.70681767052527], [77.2717573077323, 28.70681767052527], [77.2717573077323, 28.704817670525266]]}}, {"type": "Feature", "geometry": {"type": "Point", "coordinates": [77.35773048165706, 28.520071246205582]}, "properties": {"id": "DMP5-032", "project_id": "DMP5", "project_name": "Delhi Metro Phase 5", "latitude": 28.520071246205582, "longitude": 77.35773048165706, "area_hectares": 14.54, "land_type": "industrial", "ownership_status": "private_single", "acquisition_status": "disputed", "compensation_status": "assessed", "dispute_status": "no_dispute", "ownership_risk": 5, "legal_risk": 4, "compensation_risk": 4, "environmental_risk": 2, "social_risk": 4, "delay_risk": 4, "risk_score": 39.0, "risk_level": "Medium", "district": "New Delhi", "state": "Delhi", "owner_reference": "OWNER-DMP5-032", "notes": "Prototype Dataset", "polygon_coords": [[77.35673048165705, 28.51907124620558], [77.35873048165706, 28.51907124620558], [77.35873048165706, 28.521071246205583], [77.35673048165705, 28.521071246205583], [77.35673048165705, 28.51907124620558]]}}, {"type": "Feature", "geometry": {"type": "Point", "coordinates": [77.20015026939896, 28.79124847384493]}, "properties": {"id": "DMP5-033", "project_id": "DMP5", "project_name": "Delhi Metro Phase 5", "latitude": 28.79124847384493, "longitude": 77.20015026939896, "area_hectares": 2.25, "land_type": "agricultural", "ownership_status": "private_single", "acquisition_status": "in_progress", "compensation_status": "fully_paid", "dispute_status": "no_dispute", "ownership_risk": 1, "legal_risk": 1, "compensation_risk": 3, "environmental_risk": 0, "social_risk": 3, "delay_risk": 0, "risk_score": 13.5, "risk_level": "Low", "district": "New Delhi", "state": "Delhi", "owner_reference": "OWNER-DMP5-033", "notes": "Prototype Dataset", "polygon_coords": [[77.19915026939896, 28.79024847384493], [77.20115026939897, 28.79024847384493], [77.20115026939897, 28.792248473844932], [77.19915026939896, 28.792248473844932], [77.19915026939896, 28.79024847384493]]}}, {"type": "Feature", "geometry": {"type": "Point", "coordinates": [77.23033081851588, 28.529390585507773]}, "properties": {"id": "DMP5-034", "project_id": "DMP5", "project_name": "Delhi Metro Phase 5", "latitude": 28.529390585507773, "longitude": 77.23033081851588, "area_hectares": 6.38, "land_type": "industrial", "ownership_status": "private_single", "acquisition_status": "completed", "compensation_status": "approved", "dispute_status": "no_dispute", "ownership_risk": 0, "legal_risk": 0, "compensation_risk": 3, "environmental_risk": 1, "social_risk": 0, "delay_risk": 2, "risk_score": 9.5, "risk_level": "Low", "district": "New Delhi", "state": "Delhi", "owner_reference": "OWNER-DMP5-034", "notes": "Prototype Dataset", "polygon_coords": [[77.22933081851588, 28.528390585507772], [77.23133081851589, 28.528390585507772], [77.23133081851589, 28.530390585507774], [77.22933081851588, 28.530390585507774], [77.22933081851588, 28.528390585507772]]}}, {"type": "Feature", "geometry": {"type": "Point", "coordinates": [77.24235673907923, 28.69780736198992]}, "properties": {"id": "DMP5-035", "project_id": "DMP5", "project_name": "Delhi Metro Phase 5", "latitude": 28.69780736198992, "longitude": 77.24235673907923, "area_hectares": 8.38, "land_type": "commercial", "ownership_status": "private_single", "acquisition_status": "lapsed", "compensation_status": "assessed", "dispute_status": "minor_dispute", "ownership_risk": 6, "legal_risk": 6, "compensation_risk": 5, "environmental_risk": 3, "social_risk": 5, "delay_risk": 6, "risk_score": 52.5, "risk_level": "High", "district": "New Delhi", "state": "Delhi", "owner_reference": "OWNER-DMP5-035", "notes": "Prototype Dataset", "polygon_coords": [[77.24135673907922, 28.69680736198992], [77.24335673907923, 28.69680736198992], [77.24335673907923, 28.69880736198992], [77.24135673907922, 28.69880736198992], [77.24135673907922, 28.69680736198992]]}}, {"type": "Feature", "geometry": {"type": "Point", "coordinates": [77.01369396804847, 28.757697653748348]}, "properties": {"id": "DMP5-036", "project_id": "DMP5", "project_name": "Delhi Metro Phase 5", "latitude": 28.757697653748348, "longitude": 77.01369396804847, "area_hectares": 12.24, "land_type": "forest", "ownership_status": "private_single", "acquisition_status": "completed", "compensation_status": "partially_paid", "dispute_status": "no_dispute", "ownership_risk": 2, "legal_risk": 4, "compensation_risk": 2, "environmental_risk": 4, "social_risk": 6, "delay_risk": 2, "risk_score": 32.0, "risk_level": "Medium", "district": "New Delhi", "state": "Delhi", "owner_reference": "OWNER-DMP5-036", "notes": "Prototype Dataset", "polygon_coords": [[77.01269396804847, 28.756697653748347], [77.01469396804848, 28.756697653748347], [77.01469396804848, 28.75869765374835], [77.01269396804847, 28.75869765374835], [77.01269396804847, 28.756697653748347]]}}, {"type": "Feature", "geometry": {"type": "Point", "coordinates": [77.38048226050606, 28.5402759479792]}, "properties": {"id": "DMP5-037", "project_id": "DMP5", "project_name": "Delhi Metro Phase 5", "latitude": 28.5402759479792, "longitude": 77.38048226050606, "area_hectares": 14.34, "land_type": "commercial", "ownership_status": "private_multiple", "acquisition_status": "in_progress", "compensation_status": "not_assessed", "dispute_status": "minor_dispute", "ownership_risk": 5, "legal_risk": 5, "compensation_risk": 5, "environmental_risk": 5, "social_risk": 9, "delay_risk": 5, "risk_score": 54.0, "risk_level": "High", "district": "New Delhi", "state": "Delhi", "owner_reference": "OWNER-DMP5-037", "notes": "Prototype Dataset", "polygon_coords": [[77.37948226050605, 28.5392759479792], [77.38148226050606, 28.5392759479792], [77.38148226050606, 28.5412759479792], [77.37948226050605, 28.5412759479792], [77.37948226050605, 28.5392759479792]]}}, {"type": "Feature", "geometry": {"type": "Point", "coordinates": [77.17173280222181, 28.588789345516727]}, "properties": {"id": "DMP5-038", "project_id": "DMP5", "project_name": "Delhi Metro Phase 5", "latitude": 28.588789345516727, "longitude": 77.17173280222181, "area_hectares": 4.44, "land_type": "industrial", "ownership_status": "private_single", "acquisition_status": "in_progress", "compensation_status": "assessed", "dispute_status": "minor_dispute", "ownership_risk": 6, "legal_risk": 6, "compensation_risk": 2, "environmental_risk": 2, "social_risk": 2, "delay_risk": 2, "risk_score": 38.0, "risk_level": "Medium", "district": "New Delhi", "state": "Delhi", "owner_reference": "OWNER-DMP5-038", "notes": "Prototype Dataset", "polygon_coords": [[77.1707328022218, 28.587789345516725], [77.17273280222182, 28.587789345516725], [77.17273280222182, 28.589789345516728], [77.1707328022218, 28.589789345516728], [77.1707328022218, 28.587789345516725]]}}, {"type": "Feature", "geometry": {"type": "Point", "coordinates": [77.22076066529723, 28.460786794736414]}, "properties": {"id": "DMP5-039", "project_id": "DMP5", "project_name": "Delhi Metro Phase 5", "latitude": 28.460786794736414, "longitude": 77.22076066529723, "area_hectares": 6.01, "land_type": "residential", "ownership_status": "private_single", "acquisition_status": "completed", "compensation_status": "fully_paid", "dispute_status": "no_dispute", "ownership_risk": 2, "legal_risk": 3, "compensation_risk": 1, "environmental_risk": 2, "social_risk": 2, "delay_risk": 2, "risk_score": 20.5, "risk_level": "Low", "district": "New Delhi", "state": "Delhi", "owner_reference": "OWNER-DMP5-039", "notes": "Prototype Dataset", "polygon_coords": [[77.21976066529723, 28.459786794736413], [77.22176066529724, 28.459786794736413], [77.22176066529724, 28.461786794736415], [77.21976066529723, 28.461786794736415], [77.21976066529723, 28.459786794736413]]}}, {"type": "Feature", "geometry": {"type": "Point", "coordinates": [77.16153923518965, 28.793735442823774]}, "properties": {"id": "DMP5-040", "project_id": "DMP5", "project_name": "Delhi Metro Phase 5", "latitude": 28.793735442823774, "longitude": 77.16153923518965, "area_hectares": 12.76, "land_type": "forest", "ownership_status": "private_single", "acquisition_status": "completed", "compensation_status": "assessed", "dispute_status": "minor_dispute", "ownership_risk": 3, "legal_risk": 3, "compensation_risk": 4, "environmental_risk": 2, "social_risk": 4, "delay_risk": 2, "risk_score": 30.5, "risk_level": "Medium", "district": "New Delhi", "state": "Delhi", "owner_reference": "OWNER-DMP5-040", "notes": "Prototype Dataset", "polygon_coords": [[77.16053923518965, 28.792735442823773], [77.16253923518966, 28.792735442823773], [77.16253923518966, 28.794735442823775], [77.16053923518965, 28.794735442823775], [77.16053923518965, 28.792735442823773]]}}, {"type": "Feature", "geometry": {"type": "Point", "coordinates": [77.19704692047128, 28.784277667392956]}, "properties": {"id": "DMP5-041", "project_id": "DMP5", "project_name": "Delhi Metro Phase 5", "latitude": 28.784277667392956, "longitude": 77.19704692047128, "area_hectares": 8.2, "land_type": "industrial", "ownership_status": "private_single", "acquisition_status": "disputed", "compensation_status": "approved", "dispute_status": "no_dispute", "ownership_risk": 0, "legal_risk": 3, "compensation_risk": 2, "environmental_risk": 1, "social_risk": 1, "delay_risk": 2, "risk_score": 16.0, "risk_level": "Low", "district": "New Delhi", "state": "Delhi", "owner_reference": "OWNER-DMP5-041", "notes": "Prototype Dataset", "polygon_coords": [[77.19604692047128, 28.783277667392955], [77.19804692047128, 28.783277667392955], [77.19804692047128, 28.785277667392958], [77.19604692047128, 28.785277667392958], [77.19604692047128, 28.783277667392955]]}}, {"type": "Feature", "geometry": {"type": "Point", "coordinates": [77.20429493187396, 28.473743062054403]}, "properties": {"id": "DMP5-042", "project_id": "DMP5", "project_name": "Delhi Metro Phase 5", "latitude": 28.473743062054403, "longitude": 77.20429493187396, "area_hectares": 10.37, "land_type": "forest", "ownership_status": "private_multiple", "acquisition_status": "lapsed", "compensation_status": "disputed", "dispute_status": "major_dispute", "ownership_risk": 6, "legal_risk": 8, "compensation_risk": 9, "environmental_risk": 7, "social_risk": 6, "delay_risk": 9, "risk_score": 75.5, "risk_level": "Critical", "district": "New Delhi", "state": "Delhi", "owner_reference": "OWNER-DMP5-042", "notes": "Prototype Dataset", "polygon_coords": [[77.20329493187396, 28.472743062054402], [77.20529493187396, 28.472743062054402], [77.20529493187396, 28.474743062054404], [77.20329493187396, 28.474743062054404], [77.20329493187396, 28.472743062054402]]}}, {"type": "Feature", "geometry": {"type": "Point", "coordinates": [77.04898514808355, 28.603392570401592]}, "properties": {"id": "DMP5-043", "project_id": "DMP5", "project_name": "Delhi Metro Phase 5", "latitude": 28.603392570401592, "longitude": 77.04898514808355, "area_hectares": 2.84, "land_type": "commercial", "ownership_status": "private_single", "acquisition_status": "disputed", "compensation_status": "approved", "dispute_status": "no_dispute", "ownership_risk": 2, "legal_risk": 0, "compensation_risk": 3, "environmental_risk": 3, "social_risk": 1, "delay_risk": 1, "risk_score": 16.5, "risk_level": "Low", "district": "New Delhi", "state": "Delhi", "owner_reference": "OWNER-DMP5-043", "notes": "Prototype Dataset", "polygon_coords": [[77.04798514808354, 28.60239257040159], [77.04998514808355, 28.60239257040159], [77.04998514808355, 28.604392570401593], [77.04798514808354, 28.604392570401593], [77.04798514808354, 28.60239257040159]]}}, {"type": "Feature", "geometry": {"type": "Point", "coordinates": [77.36627076059574, 28.73676968734541]}, "properties": {"id": "DMP5-044", "project_id": "DMP5", "project_name": "Delhi Metro Phase 5", "latitude": 28.73676968734541, "longitude": 77.36627076059574, "area_hectares": 6.28, "land_type": "forest", "ownership_status": "private_multiple", "acquisition_status": "completed", "compensation_status": "disputed", "dispute_status": "major_dispute", "ownership_risk": 6, "legal_risk": 5, "compensation_risk": 8, "environmental_risk": 6, "social_risk": 9, "delay_risk": 7, "risk_score": 65.5, "risk_level": "High", "district": "New Delhi", "state": "Delhi", "owner_reference": "OWNER-DMP5-044", "notes": "Prototype Dataset", "polygon_coords": [[77.36527076059573, 28.73576968734541], [77.36727076059574, 28.73576968734541], [77.36727076059574, 28.737769687345413], [77.36527076059573, 28.737769687345413], [77.36527076059573, 28.73576968734541]]}}, {"type": "Feature", "geometry": {"type": "Point", "coordinates": [77.04929703602747, 28.688626228008413]}, "properties": {"id": "DMP5-045", "project_id": "DMP5", "project_name": "Delhi Metro Phase 5", "latitude": 28.688626228008413, "longitude": 77.04929703602747, "area_hectares": 8.61, "land_type": "forest", "ownership_status": "private_single", "acquisition_status": "in_progress", "compensation_status": "fully_paid", "dispute_status": "no_dispute", "ownership_risk": 2, "legal_risk": 1, "compensation_risk": 2, "environmental_risk": 2, "social_risk": 2, "delay_risk": 1, "risk_score": 16.5, "risk_level": "Low", "district": "New Delhi", "state": "Delhi", "owner_reference": "OWNER-DMP5-045", "notes": "Prototype Dataset", "polygon_coords": [[77.04829703602746, 28.687626228008412], [77.05029703602747, 28.687626228008412], [77.05029703602747, 28.689626228008414], [77.04829703602746, 28.689626228008414], [77.04829703602746, 28.687626228008412]]}}, {"type": "Feature", "geometry": {"type": "Point", "coordinates": [77.00801980442763, 28.682191406519532]}, "properties": {"id": "DMP5-046", "project_id": "DMP5", "project_name": "Delhi Metro Phase 5", "latitude": 28.682191406519532, "longitude": 77.00801980442763, "area_hectares": 9.24, "land_type": "forest", "ownership_status": "private_single", "acquisition_status": "not_started", "compensation_status": "assessed", "dispute_status": "minor_dispute", "ownership_risk": 2, "legal_risk": 3, "compensation_risk": 4, "environmental_risk": 2, "social_risk": 3, "delay_risk": 5, "risk_score": 30.5, "risk_level": "Medium", "district": "New Delhi", "state": "Delhi", "owner_reference": "OWNER-DMP5-046", "notes": "Prototype Dataset", "polygon_coords": [[77.00701980442763, 28.68119140651953], [77.00901980442764, 28.68119140651953], [77.00901980442764, 28.683191406519533], [77.00701980442763, 28.683191406519533], [77.00701980442763, 28.68119140651953]]}}, {"type": "Feature", "geometry": {"type": "Point", "coordinates": [77.19040997208245, 28.79035052070211]}, "properties": {"id": "DMP5-047", "project_id": "DMP5", "project_name": "Delhi Metro Phase 5", "latitude": 28.79035052070211, "longitude": 77.19040997208245, "area_hectares": 8.36, "land_type": "industrial", "ownership_status": "disputed", "acquisition_status": "in_progress", "compensation_status": "disputed", "dispute_status": "court_case", "ownership_risk": 8, "legal_risk": 7, "compensation_risk": 10, "environmental_risk": 8, "social_risk": 10, "delay_risk": 9, "risk_score": 84.5, "risk_level": "Critical", "district": "New Delhi", "state": "Delhi", "owner_reference": "OWNER-DMP5-047", "notes": "Prototype Dataset", "polygon_coords": [[77.18940997208244, 28.789350520702108], [77.19140997208245, 28.789350520702108], [77.19140997208245, 28.79135052070211], [77.18940997208244, 28.79135052070211], [77.18940997208244, 28.789350520702108]]}}, {"type": "Feature", "geometry": {"type": "Point", "coordinates": [77.07747366792043, 28.52571464721152]}, "properties": {"id": "DMP5-048", "project_id": "DMP5", "project_name": "Delhi Metro Phase 5", "latitude": 28.52571464721152, "longitude": 77.07747366792043, "area_hectares": 7.13, "land_type": "agricultural", "ownership_status": "private_single", "acquisition_status": "lapsed", "compensation_status": "assessed", "dispute_status": "no_dispute", "ownership_risk": 2, "legal_risk": 2, "compensation_risk": 3, "environmental_risk": 2, "social_risk": 3, "delay_risk": 5, "risk_score": 26.0, "risk_level": "Medium", "district": "New Delhi", "state": "Delhi", "owner_reference": "OWNER-DMP5-048", "notes": "Prototype Dataset", "polygon_coords": [[77.07647366792042, 28.524714647211518], [77.07847366792043, 28.524714647211518], [77.07847366792043, 28.52671464721152], [77.07647366792042, 28.52671464721152], [77.07647366792042, 28.524714647211518]]}}, {"type": "Feature", "geometry": {"type": "Point", "coordinates": [77.18981174133816, 28.718121751302203]}, "properties": {"id": "DMP5-049", "project_id": "DMP5", "project_name": "Delhi Metro Phase 5", "latitude": 28.718121751302203, "longitude": 77.18981174133816, "area_hectares": 1.4, "land_type": "residential", "ownership_status": "disputed", "acquisition_status": "disputed", "compensation_status": "disputed", "dispute_status": "court_case", "ownership_risk": 9, "legal_risk": 7, "compensation_risk": 8, "environmental_risk": 8, "social_risk": 7, "delay_risk": 7, "risk_score": 77.5, "risk_level": "Critical", "district": "New Delhi", "state": "Delhi", "owner_reference": "OWNER-DMP5-049", "notes": "Prototype Dataset", "polygon_coords": [[77.18881174133816, 28.7171217513022], [77.19081174133817, 28.7171217513022], [77.19081174133817, 28.719121751302204], [77.18881174133816, 28.719121751302204], [77.18881174133816, 28.7171217513022]]}}, {"type": "Feature", "geometry": {"type": "Point", "coordinates": [77.07306168156501, 28.664993361035414]}, "properties": {"id": "DMP5-050", "project_id": "DMP5", "project_name": "Delhi Metro Phase 5", "latitude": 28.664993361035414, "longitude": 77.07306168156501, "area_hectares": 9.78, "land_type": "forest", "ownership_status": "private_single", "acquisition_status": "disputed", "compensation_status": "assessed", "dispute_status": "no_dispute", "ownership_risk": 2, "legal_risk": 4, "compensation_risk": 6, "environmental_risk": 6, "social_risk": 3, "delay_risk": 5, "risk_score": 43.0, "risk_level": "Medium", "district": "New Delhi", "state": "Delhi", "owner_reference": "OWNER-DMP5-050", "notes": "Prototype Dataset", "polygon_coords": [[77.072061681565, 28.663993361035413], [77.07406168156501, 28.663993361035413], [77.07406168156501, 28.665993361035415], [77.072061681565, 28.665993361035415], [77.072061681565, 28.663993361035413]]}}, {"type": "Feature", "geometry": {"type": "Point", "coordinates": [77.30694706966041, 28.511843476511373]}, "properties": {"id": "DMP5-051", "project_id": "DMP5", "project_name": "Delhi Metro Phase 5", "latitude": 28.511843476511373, "longitude": 77.30694706966041, "area_hectares": 14.4, "land_type": "agricultural", "ownership_status": "government", "acquisition_status": "in_progress", "compensation_status": "approved", "dispute_status": "no_dispute", "ownership_risk": 3, "legal_risk": 3, "compensation_risk": 3, "environmental_risk": 2, "social_risk": 3, "delay_risk": 0, "risk_score": 25.5, "risk_level": "Medium", "district": "New Delhi", "state": "Delhi", "owner_reference": "OWNER-DMP5-051", "notes": "Prototype Dataset", "polygon_coords": [[77.3059470696604, 28.510843476511372], [77.30794706966041, 28.510843476511372], [77.30794706966041, 28.512843476511375], [77.3059470696604, 28.512843476511375], [77.3059470696604, 28.510843476511372]]}}, {"type": "Feature", "geometry": {"type": "Point", "coordinates": [77.39071303683937, 28.59050039782415]}, "properties": {"id": "DMP5-052", "project_id": "DMP5", "project_name": "Delhi Metro Phase 5", "latitude": 28.59050039782415, "longitude": 77.39071303683937, "area_hectares": 9.47, "land_type": "forest", "ownership_status": "private_multiple", "acquisition_status": "completed", "compensation_status": "disputed", "dispute_status": "major_dispute", "ownership_risk": 9, "legal_risk": 7, "compensation_risk": 6, "environmental_risk": 9, "social_risk": 7, "delay_risk": 7, "risk_score": 75.0, "risk_level": "High", "district": "New Delhi", "state": "Delhi", "owner_reference": "OWNER-DMP5-052", "notes": "Prototype Dataset", "polygon_coords": [[77.38971303683937, 28.58950039782415], [77.39171303683938, 28.58950039782415], [77.39171303683938, 28.591500397824152], [77.38971303683937, 28.591500397824152], [77.38971303683937, 28.58950039782415]]}}, {"type": "Feature", "geometry": {"type": "Point", "coordinates": [77.1141250988519, 28.467030634310596]}, "properties": {"id": "DMP5-053", "project_id": "DMP5", "project_name": "Delhi Metro Phase 5", "latitude": 28.467030634310596, "longitude": 77.1141250988519, "area_hectares": 8.48, "land_type": "residential", "ownership_status": "private_single", "acquisition_status": "not_started", "compensation_status": "fully_paid", "dispute_status": "no_dispute", "ownership_risk": 0, "legal_risk": 0, "compensation_risk": 2, "environmental_risk": 0, "social_risk": 1, "delay_risk": 3, "risk_score": 8.0, "risk_level": "Low", "district": "New Delhi", "state": "Delhi", "owner_reference": "OWNER-DMP5-053", "notes": "Prototype Dataset", "polygon_coords": [[77.1131250988519, 28.466030634310595], [77.1151250988519, 28.466030634310595], [77.1151250988519, 28.468030634310598], [77.1131250988519, 28.468030634310598], [77.1131250988519, 28.466030634310595]]}}, {"type": "Feature", "geometry": {"type": "Point", "coordinates": [77.04402765700894, 28.44265967484105]}, "properties": {"id": "DMP5-054", "project_id": "DMP5", "project_name": "Delhi Metro Phase 5", "latitude": 28.44265967484105, "longitude": 77.04402765700894, "area_hectares": 7.58, "land_type": "agricultural", "ownership_status": "private_single", "acquisition_status": "disputed", "compensation_status": "partially_paid", "dispute_status": "no_dispute", "ownership_risk": 3, "legal_risk": 4, "compensation_risk": 3, "environmental_risk": 4, "social_risk": 3, "delay_risk": 4, "risk_score": 35.0, "risk_level": "Medium", "district": "New Delhi", "state": "Delhi", "owner_reference": "OWNER-DMP5-054", "notes": "Prototype Dataset", "polygon_coords": [[77.04302765700893, 28.44165967484105], [77.04502765700894, 28.44165967484105], [77.04502765700894, 28.44365967484105], [77.04302765700893, 28.44365967484105], [77.04302765700893, 28.44165967484105]]}}, {"type": "Feature", "geometry": {"type": "Point", "coordinates": [77.26431743102664, 28.724390598186268]}, "properties": {"id": "DMP5-055", "project_id": "DMP5", "project_name": "Delhi Metro Phase 5", "latitude": 28.724390598186268, "longitude": 77.26431743102664, "area_hectares": 8.7, "land_type": "commercial", "ownership_status": "private_single", "acquisition_status": "disputed", "compensation_status": "fully_paid", "dispute_status": "no_dispute", "ownership_risk": 2, "legal_risk": 2, "compensation_risk": 2, "environmental_risk": 0, "social_risk": 2, "delay_risk": 3, "risk_score": 18.0, "risk_level": "Low", "district": "New Delhi", "state": "Delhi", "owner_reference": "OWNER-DMP5-055", "notes": "Prototype Dataset", "polygon_coords": [[77.26331743102664, 28.723390598186267], [77.26531743102665, 28.723390598186267], [77.26531743102665, 28.72539059818627], [77.26331743102664, 28.72539059818627], [77.26331743102664, 28.723390598186267]]}}, {"type": "Feature", "geometry": {"type": "Point", "coordinates": [77.37482421600507, 28.716662941920205]}, "properties": {"id": "DMP5-056", "project_id": "DMP5", "project_name": "Delhi Metro Phase 5", "latitude": 28.716662941920205, "longitude": 77.37482421600507, "area_hectares": 9.24, "land_type": "agricultural", "ownership_status": "government", "acquisition_status": "in_progress", "compensation_status": "approved", "dispute_status": "no_dispute", "ownership_risk": 3, "legal_risk": 0, "compensation_risk": 2, "environmental_risk": 0, "social_risk": 2, "delay_risk": 0, "risk_score": 12.0, "risk_level": "Low", "district": "New Delhi", "state": "Delhi", "owner_reference": "OWNER-DMP5-056", "notes": "Prototype Dataset", "polygon_coords": [[77.37382421600506, 28.715662941920204], [77.37582421600507, 28.715662941920204], [77.37582421600507, 28.717662941920207], [77.37382421600506, 28.717662941920207], [77.37382421600506, 28.715662941920204]]}}, {"type": "Feature", "geometry": {"type": "Point", "coordinates": [77.0717404822179, 28.52644905566584]}, "properties": {"id": "DMP5-057", "project_id": "DMP5", "project_name": "Delhi Metro Phase 5", "latitude": 28.52644905566584, "longitude": 77.0717404822179, "area_hectares": 2.48, "land_type": "agricultural", "ownership_status": "private_single", "acquisition_status": "completed", "compensation_status": "fully_paid", "dispute_status": "no_dispute", "ownership_risk": 0, "legal_risk": 3, "compensation_risk": 0, "environmental_risk": 0, "social_risk": 0, "delay_risk": 1, "risk_score": 8.5, "risk_level": "Low", "district": "New Delhi", "state": "Delhi", "owner_reference": "OWNER-DMP5-057", "notes": "Prototype Dataset", "polygon_coords": [[77.0707404822179, 28.525449055665838], [77.07274048221791, 28.525449055665838], [77.07274048221791, 28.52744905566584], [77.0707404822179, 28.52744905566584], [77.0707404822179, 28.525449055665838]]}}, {"type": "Feature", "geometry": {"type": "Point", "coordinates": [77.25082485517768, 28.751014141314332]}, "properties": {"id": "DMP5-058", "project_id": "DMP5", "project_name": "Delhi Metro Phase 5", "latitude": 28.751014141314332, "longitude": 77.25082485517768, "area_hectares": 1.4, "land_type": "agricultural", "ownership_status": "government", "acquisition_status": "in_progress", "compensation_status": "fully_paid", "dispute_status": "no_dispute", "ownership_risk": 3, "legal_risk": 2, "compensation_risk": 0, "environmental_risk": 2, "social_risk": 2, "delay_risk": 1, "risk_score": 17.0, "risk_level": "Low", "district": "New Delhi", "state": "Delhi", "owner_reference": "OWNER-DMP5-058", "notes": "Prototype Dataset", "polygon_coords": [[77.24982485517768, 28.75001414131433], [77.25182485517769, 28.75001414131433], [77.25182485517769, 28.752014141314334], [77.24982485517768, 28.752014141314334], [77.24982485517768, 28.75001414131433]]}}, {"type": "Feature", "geometry": {"type": "Point", "coordinates": [77.10994147469982, 28.533690950015874]}, "properties": {"id": "DMP5-059", "project_id": "DMP5", "project_name": "Delhi Metro Phase 5", "latitude": 28.533690950015874, "longitude": 77.10994147469982, "area_hectares": 5.88, "land_type": "residential", "ownership_status": "private_single", "acquisition_status": "lapsed", "compensation_status": "assessed", "dispute_status": "no_dispute", "ownership_risk": 2, "legal_risk": 2, "compensation_risk": 4, "environmental_risk": 2, "social_risk": 2, "delay_risk": 3, "risk_score": 25.0, "risk_level": "Low", "district": "New Delhi", "state": "Delhi", "owner_reference": "OWNER-DMP5-059", "notes": "Prototype Dataset", "polygon_coords": [[77.10894147469982, 28.532690950015873], [77.11094147469983, 28.532690950015873], [77.11094147469983, 28.534690950015875], [77.10894147469982, 28.534690950015875], [77.10894147469982, 28.532690950015873]]}}, {"type": "Feature", "geometry": {"type": "Point", "coordinates": [77.2552532145553, 28.78358308343677]}, "properties": {"id": "DMP5-060", "project_id": "DMP5", "project_name": "Delhi Metro Phase 5", "latitude": 28.78358308343677, "longitude": 77.2552532145553, "area_hectares": 14.16, "land_type": "industrial", "ownership_status": "private_single", "acquisition_status": "completed", "compensation_status": "approved", "dispute_status": "no_dispute", "ownership_risk": 2, "legal_risk": 0, "compensation_risk": 3, "environmental_risk": 1, "social_risk": 3, "delay_risk": 0, "risk_score": 14.5, "risk_level": "Low", "district": "New Delhi", "state": "Delhi", "owner_reference": "OWNER-DMP5-060", "notes": "Prototype Dataset", "polygon_coords": [[77.25425321455529, 28.78258308343677], [77.2562532145553, 28.78258308343677], [77.2562532145553, 28.78458308343677], [77.25425321455529, 28.78458308343677], [77.25425321455529, 28.78258308343677]]}}]}