{"type": "FeatureCollection", "features": [{"type": "Feature", "geometry": {"type": "Point", "coordinates": [73.61729412176255, 18.72697584430624]}, "properties": {"id": "MPZ-001", "project_id": "MPZ", "project_name": "Mumbai-Pune Infrastructure Zone", "latitude": 18.72697584430624, "longitude": 73.61729412176255, "area_hectares": 9.16, "land_type": "industrial", "ownership_status": "private_single", "acquisition_status": "lapsed", "compensation_status": "assessed", "dispute_status": "minor_dispute", "ownership_risk": 5, "legal_risk": 6, "compensation_risk": 5, "environmental_risk": 4, "social_risk": 6, "delay_risk": 3, "risk_score": 50.0, "risk_level": "Medium", "district": "Pune", "state": "Maharashtra", "owner_reference": "OWNER-MPZ-001", "notes": "Prototype Dataset", "polygon_coords": [[73.61629412176255, 18.725975844306237], [73.61829412176256, 18.725975844306237], [73.61829412176256, 18.72797584430624], [73.61629412176255, 18.72797584430624], [73.61629412176255, 18.725975844306237]]}}, {"type": "Feature", "geometry": {"type": "Point", "coordinates": [73.68356192981338, 18.585115797849316]}, "properties": {"id": "MPZ-002", "project_id": "MPZ", "project_name": "Mumbai-Pune Infrastructure Zone", "latitude": 18.585115797849316, "longitude": 73.68356192981338, "area_hectares": 3.25, "land_type": "industrial", "ownership_status": "private_single", "acquisition_status": "in_progress", "compensation_status": "assessed", "dispute_status": "minor_dispute", "ownership_risk": 2, "legal_risk": 6, "compensation_risk": 6, "environmental_risk": 4, "social_risk": 3, "delay_risk": 5, "risk_score": 45.0, "risk_level": "Medium", "district": "Pune", "state": "Maharashtra", "owner_reference": "OWNER-MPZ-002", "notes": "Prototype Dataset", "polygon_coords": [[73.68256192981337, 18.584115797849314], [73.68456192981338, 18.584115797849314], [73.68456192981338, 18.586115797849317], [73.68256192981337, 18.586115797849317], [73.68256192981337, 18.584115797849314]]}}, {"type": "Feature", "geometry": {"type": "Point", "coordinates": [73.85811927588585, 18.686391870055544]}, "properties": {"id": "MPZ-003", "project_id": "MPZ", "project_name": "Mumbai-Pune Infrastructure Zone", "latitude": 18.686391870055544, "longitude": 73.85811927588585, "area_hectares": 3.18, "land_type": "residential", "ownership_status": "private_multiple", "acquisition_status": "lapsed", "compensation_status": "disputed", "dispute_status": "major_dispute", "ownership_risk": 8, "legal_risk": 7, "compensation_risk": 9, "environmental_risk": 5, "social_risk": 7, "delay_risk": 6, "risk_score": 72.0, "risk_level": "High", "district": "Pune", "state": "Maharashtra", "owner_reference": "OWNER-MPZ-003", "notes": "Prototype Dataset", "polygon_coords": [[73.85711927588585, 18.685391870055543], [73.85911927588586, 18.685391870055543], [73.85911927588586, 18.687391870055546], [73.85711927588585, 18.687391870055546], [73.85711927588585, 18.685391870055543]]}}, {"type": "Feature", "geometry": {"type": "Point", "coordinates": [73.78381606201509, 18.64378131163458]}, "properties": {"id": "MPZ-004", "project_id": "MPZ", "project_name": "Mumbai-Pune Infrastructure Zone", "latitude": 18.64378131163458, "longitude": 73.78381606201509, "area_hectares": 6.41, "land_type": "industrial", "ownership_status": "government", "acquisition_status": "in_progress", "compensation_status": "approved", "dispute_status": "no_dispute", "ownership_risk": 0, "legal_risk": 3, "compensation_risk": 0, "environmental_risk": 0, "social_risk": 3, "delay_risk": 2, "risk_score": 12.5, "risk_level": "Low", "district": "Pune", "state": "Maharashtra", "owner_reference": "OWNER-MPZ-004", "notes": "Prototype Dataset", "polygon_coords": [[73.78281606201509, 18.64278131163458], [73.7848160620151, 18.64278131163458], [73.7848160620151, 18.64478131163458], [73.78281606201509, 18.64478131163458], [73.78281606201509, 18.64278131163458]]}}, {"type": "Feature", "geometry": {"type": "Point", "coordinates": [73.89532414388405, 18.671919075086862]}, "properties": {"id": "MPZ-005", "project_id": "MPZ", "project_name": "Mumbai-Pune Infrastructure Zone", "latitude": 18.671919075086862, "longitude": 73.89532414388405, "area_hectares": 11.06, "land_type": "industrial", "ownership_status": "private_single", "acquisition_status": "disputed", "compensation_status": "partially_paid", "dispute_status": "no_dispute", "ownership_risk": 2, "legal_risk": 6, "compensation_risk": 4, "environmental_risk": 3, "social_risk": 5, "delay_risk": 3, "risk_score": 39.5, "risk_level": "Medium", "district": "Pune", "state": "Maharashtra", "owner_reference": "OWNER-MPZ-005", "notes": "Prototype Dataset", "polygon_coords": [[73.89432414388405, 18.67091907508686], [73.89632414388406, 18.67091907508686], [73.89632414388406, 18.672919075086863], [73.89432414388405, 18.672919075086863], [73.89432414388405, 18.67091907508686]]}}, {"type": "Feature", "geometry": {"type": "Point", "coordinates": [73.8855097822539, 18.62176465560719]}, "properties": {"id": "MPZ-006", "project_id": "MPZ", "project_name": "Mumbai-Pune Infrastructure Zone", "latitude": 18.62176465560719, "longitude": 73.8855097822539, "area_hectares": 3.36, "land_type": "agricultural", "ownership_status": "private_multiple", "acquisition_status": "disputed", "compensation_status": "not_assessed", "dispute_status": "major_dispute", "ownership_risk": 7, "legal_risk": 6, "compensation_risk": 8, "environmental_risk": 8, "social_risk": 6, "delay_risk": 8, "risk_score": 71.0, "risk_level": "High", "district": "Pune", "state": "Maharashtra", "owner_reference": "OWNER-MPZ-006", "notes": "Prototype Dataset", "polygon_coords": [[73.8845097822539, 18.62076465560719], [73.88650978225391, 18.62076465560719], [73.88650978225391, 18.62276465560719], [73.8845097822539, 18.62276465560719], [73.8845097822539, 18.62076465560719]]}}, {"type": "Feature", "geometry": {"type": "Point", "coordinates": [73.94697474810891, 18.68866950470304]}, "properties": {"id": "MPZ-007", "project_id": "MPZ", "project_name": "Mumbai-Pune Infrastructure Zone", "latitude": 18.68866950470304, "longitude": 73.94697474810891, "area_hectares": 2.76, "land_type": "forest", "ownership_status": "disputed", "acquisition_status": "in_progress", "compensation_status": "disputed", "dispute_status": "court_case", "ownership_risk": 10, "legal_risk": 9, "compensation_risk": 8, "environmental_risk": 9, "social_risk": 10, "delay_risk": 10, "risk_score": 92.0, "risk_level": "Critical", "district": "Pune", "state": "Maharashtra", "owner_reference": "OWNER-MPZ-007", "notes": "Prototype Dataset", "polygon_coords": [[73.94597474810891, 18.687669504703038], [73.94797474810892, 18.687669504703038], [73.94797474810892, 18.68966950470304], [73.94597474810891, 18.68966950470304], [73.94597474810891, 18.687669504703038]]}}, {"type": "Feature", "geometry": {"type": "Point", "coordinates": [73.87301622831914, 18.84234093199269]}, "properties": {"id": "MPZ-008", "project_id": "MPZ", "project_name": "Mumbai-Pune Infrastructure Zone", "latitude": 18.84234093199269, "longitude": 73.87301622831914, "area_hectares": 2.31, "land_type": "commercial", "ownership_status": "private_multiple", "acquisition_status": "not_started", "compensation_status": "disputed", "dispute_status": "major_dispute", "ownership_risk": 9, "legal_risk": 5, "compensation_risk": 8, "environmental_risk": 7, "social_risk": 5, "delay_risk": 9, "risk_score": 71.0, "risk_level": "High", "district": "Pune", "state": "Maharashtra", "owner_reference": "OWNER-MPZ-008", "notes": "Prototype Dataset", "polygon_coords": [[73.87201622831914, 18.84134093199269], [73.87401622831915, 18.84134093199269], [73.87401622831915, 18.843340931992692], [73.87201622831914, 18.843340931992692], [73.87201622831914, 18.84134093199269]]}}, {"type": "Feature", "geometry": {"type": "Point", "coordinates": [73.88102588663459, 18.600543215553635]}, "properties": {"id": "MPZ-009", "project_id": "MPZ", "project_name": "Mumbai-Pune Infrastructure Zone", "latitude": 18.600543215553635, "longitude": 73.88102588663459, "area_hectares": 7.09, "land_type": "industrial", "ownership_status": "private_single", "acquisition_status": "disputed", "compensation_status": "assessed", "dispute_status": "no_dispute", "ownership_risk": 6, "legal_risk": 2, "compensation_risk": 2, "environmental_risk": 3, "social_risk": 2, "delay_risk": 2, "risk_score": 29.5, "risk_level": "Medium", "district": "Pune", "state": "Maharashtra", "owner_reference": "OWNER-MPZ-009", "notes": "Prototype Dataset", "polygon_coords": [[73.88002588663458, 18.599543215553634], [73.8820258866346, 18.599543215553634], [73.8820258866346, 18.601543215553637], [73.88002588663458, 18.601543215553637], [73.88002588663458, 18.599543215553634]]}}, {"type": "Feature", "geometry": {"type": "Point", "coordinates": [74.04905671188698, 18.6169773985701]}, "properties": {"id": "MPZ-010", "project_id": "MPZ", "project_name": "Mumbai-Pune Infrastructure Zone", "latitude": 18.6169773985701, "longitude": 74.04905671188698, "area_hectares": 7.53, "land_type": "forest", "ownership_status": "disputed", "acquisition_status": "completed", "compensation_status": "disputed", "dispute_status": "court_case", "ownership_risk": 9, "legal_risk": 7, "compensation_risk": 10, "environmental_risk": 10, "social_risk": 7, "delay_risk": 9, "risk_score": 86.5, "risk_level": "Critical", "district": "Pune", "state": "Maharashtra", "owner_reference": "OWNER-MPZ-010", "notes": "Prototype Dataset", "polygon_coords": [[74.04805671188697, 18.6159773985701], [74.05005671188698, 18.6159773985701], [74.05005671188698, 18.6179773985701], [74.04805671188697, 18.6179773985701], [74.04805671188697, 18.6159773985701]]}}, {"type": "Feature", "geometry": {"type": "Point", "coordinates": [73.89942745041786, 18.46902669981381]}, "properties": {"id": "MPZ-011", "project_id": "MPZ", "project_name": "Mumbai-Pune Infrastructure Zone", "latitude": 18.46902669981381, "longitude": 73.89942745041786, "area_hectares": 9.56, "land_type": "commercial", "ownership_status": "private_multiple", "acquisition_status": "completed", "compensation_status": "not_assessed", "dispute_status": "minor_dispute", "ownership_risk": 9, "legal_risk": 6, "compensation_risk": 9, "environmental_risk": 5, "social_risk": 6, "delay_risk": 5, "risk_score": 69.5, "risk_level": "High", "district": "Pune", "state": "Maharashtra", "owner_reference": "OWNER-MPZ-011", "notes": "Prototype Dataset", "polygon_coords": [[73.89842745041786, 18.46802669981381], [73.90042745041787, 18.46802669981381], [73.90042745041787, 18.47002669981381], [73.89842745041786, 18.47002669981381], [73.89842745041786, 18.46802669981381]]}}, {"type": "Feature", "geometry": {"type": "Point", "coordinates": [74.17518848520139, 18.53936299131956]}, "properties": {"id": "MPZ-012", "project_id": "MPZ", "project_name": "Mumbai-Pune Infrastructure Zone", "latitude": 18.53936299131956, "longitude": 74.17518848520139, "area_hectares": 12.78, "land_type": "forest", "ownership_status": "disputed", "acquisition_status": "disputed", "compensation_status": "disputed", "dispute_status": "court_case", "ownership_risk": 7, "legal_risk": 9, "compensation_risk": 7, "environmental_risk": 9, "social_risk": 9, "delay_risk": 9, "risk_score": 82.0, "risk_level": "Critical", "district": "Pune", "state": "Maharashtra", "owner_reference": "OWNER-MPZ-012", "notes": "Prototype Dataset", "polygon_coords": [[74.17418848520138, 18.53836299131956], [74.1761884852014, 18.53836299131956], [74.1761884852014, 18.54036299131956], [74.17418848520138, 18.54036299131956], [74.17418848520138, 18.53836299131956]]}}, {"type": "Feature", "geometry": {"type": "Point", "coordinates": [74.11879982200502, 18.42583058264148]}, "properties": {"id": "MPZ-013", "project_id": "MPZ", "project_name": "Mumbai-Pune Infrastructure Zone", "latitude": 18.42583058264148, "longitude": 74.11879982200502, "area_hectares": 7.75, "land_type": "forest", "ownership_status": "private_multiple", "acquisition_status": "completed", "compensation_status": "disputed", "dispute_status": "minor_dispute", "ownership_risk": 6, "legal_risk": 5, "compensation_risk": 6, "environmental_risk": 5, "social_risk": 7, "delay_risk": 6, "risk_score": 57.0, "risk_level": "High", "district": "Pune", "state": "Maharashtra", "owner_reference": "OWNER-MPZ-013", "notes": "Prototype Dataset", "polygon_coords": [[74.11779982200501, 18.42483058264148], [74.11979982200502, 18.42483058264148], [74.11979982200502, 18.426830582641482], [74.11779982200501, 18.426830582641482], [74.11779982200501, 18.42483058264148]]}}, {"type": "Feature", "geometry": {"type": "Point", "coordinates": [74.13317865211172, 18.457065595333365]}, "properties": {"id": "MPZ-014", "project_id": "MPZ", "project_name": "Mumbai-Pune Infrastructure Zone", "latitude": 18.457065595333365, "longitude": 74.13317865211172, "area_hectares": 8.77, "land_type": "residential", "ownership_status": "private_single", "acquisition_status": "disputed", "compensation_status": "fully_paid", "dispute_status": "no_dispute", "ownership_risk": 1, "legal_risk": 2, "compensation_risk": 3, "environmental_risk": 2, "social_risk": 0, "delay_risk": 1, "risk_score": 17.0, "risk_level": "Low", "district": "Pune", "state": "Maharashtra", "owner_reference": "OWNER-MPZ-014", "notes": "Prototype Dataset", "polygon_coords": [[74.13217865211172, 18.456065595333364], [74.13417865211173, 18.456065595333364], [74.13417865211173, 18.458065595333366], [74.13217865211172, 18.458065595333366], [74.13217865211172, 18.456065595333364]]}}, {"type": "Feature", "geometry": {"type": "Point", "coordinates": [73.9688807544666, 18.401786035399088]}, "properties": {"id": "MPZ-015", "project_id": "MPZ", "project_name": "Mumbai-Pune Infrastructure Zone", "latitude": 18.401786035399088, "longitude": 73.9688807544666, "area_hectares": 9.77, "land_type": "forest", "ownership_status": "government", "acquisition_status": "not_started", "compensation_status": "fully_paid", "dispute_status": "no_dispute", "ownership_risk": 3, "legal_risk": 0, "compensation_risk": 1, "environmental_risk": 2, "social_risk": 3, "delay_risk": 2, "risk_score": 16.0, "risk_level": "Low", "district": "Pune", "state": "Maharashtra", "owner_reference": "OWNER-MPZ-015", "notes": "Prototype Dataset", "polygon_coords": [[73.96788075446659, 18.400786035399086], [73.9698807544666, 18.400786035399086], [73.9698807544666, 18.40278603539909], [73.96788075446659, 18.40278603539909], [73.96788075446659, 18.400786035399086]]}}, {"type": "Feature", "geometry": {"type": "Point", "coordinates": [73.94086258387787, 18.709037502349613]}, "properties": {"id": "MPZ-016", "project_id": "MPZ", "project_name": "Mumbai-Pune Infrastructure Zone", "latitude": 18.709037502349613, "longitude": 73.94086258387787, "area_hectares": 1.88, "land_type": "forest", "ownership_status": "private_multiple", "acquisition_status": "completed", "compensation_status": "not_assessed", "dispute_status": "major_dispute", "ownership_risk": 6, "legal_risk": 6, "compensation_risk": 9, "environmental_risk": 9, "social_risk": 9, "delay_risk": 6, "risk_score": 73.5, "risk_level": "High", "district": "Pune", "state": "Maharashtra", "owner_reference": "OWNER-MPZ-016", "notes": "Prototype Dataset", "polygon_coords": [[73.93986258387787, 18.70803750234961], [73.94186258387788, 18.70803750234961], [73.94186258387788, 18.710037502349614], [73.93986258387787, 18.710037502349614], [73.93986258387787, 18.70803750234961]]}}, {"type": "Feature", "geometry": {"type": "Point", "coordinates": [73.93462600159587, 18.42411803287897]}, "properties": {"id": "MPZ-017", "project_id": "MPZ", "project_name": "Mumbai-Pune Infrastructure Zone", "latitude": 18.42411803287897, "longitude": 73.93462600159587, "area_hectares": 2.0, "land_type": "industrial", "ownership_status": "government", "acquisition_status": "not_started", "compensation_status": "fully_paid", "dispute_status": "no_dispute", "ownership_risk": 0, "legal_risk": 0, "compensation_risk": 3, "environmental_risk": 3, "social_risk": 1, "delay_risk": 1, "risk_score": 12.5, "risk_level": "Low", "district": "Pune", "state": "Maharashtra", "owner_reference": "OWNER-MPZ-017", "notes": "Prototype Dataset", "polygon_coords": [[73.93362600159587, 18.423118032878968], [73.93562600159588, 18.423118032878968], [73.93562600159588, 18.42511803287897], [73.93362600159587, 18.42511803287897], [73.93362600159587, 18.423118032878968]]}}, {"type": "Feature", "geometry": {"type": "Point", "coordinates": [74.18314062003114, 18.45601563581223]}, "properties": {"id": "MPZ-018", "project_id": "MPZ", "project_name": "Mumbai-Pune Infrastructure Zone", "latitude": 18.45601563581223, "longitude": 74.18314062003114, "area_hectares": 7.74, "land_type": "agricultural", "ownership_status": "government", "acquisition_status": "in_progress", "compensation_status": "fully_paid", "dispute_status": "no_dispute", "ownership_risk": 2, "legal_risk": 2, "compensation_risk": 0, "environmental_risk": 2, "social_risk": 2, "delay_risk": 3, "risk_score": 17.0, "risk_level": "Low", "district": "Pune", "state": "Maharashtra", "owner_reference": "OWNER-MPZ-018", "notes": "Prototype Dataset", "polygon_coords": [[74.18214062003113, 18.455015635812227], [74.18414062003114, 18.455015635812227], [74.18414062003114, 18.45701563581223], [74.18214062003113, 18.45701563581223], [74.18214062003113, 18.455015635812227]]}}, {"type": "Feature", "geometry": {"type": "Point", "coordinates": [73.74178856177666, 18.4998110902947]}, "properties": {"id": "MPZ-019", "project_id": "MPZ", "project_name": "Mumbai-Pune Infrastructure Zone", "latitude": 18.4998110902947, "longitude": 73.74178856177666, "area_hectares": 7.96, "land_type": "industrial", "ownership_status": "private_single", "acquisition_status": "disputed", "compensation_status": "assessed", "dispute_status": "no_dispute", "ownership_risk": 5, "legal_risk": 2, "compensation_risk": 2, "environmental_risk": 6, "social_risk": 2, "delay_risk": 2, "risk_score": 32.0, "risk_level": "Medium", "district": "Pune", "state": "Maharashtra", "owner_reference": "OWNER-MPZ-019", "notes": "Prototype Dataset", "polygon_coords": [[73.74078856177665, 18.498811090294698], [73.74278856177666, 18.498811090294698], [73.74278856177666, 18.5008110902947], [73.74078856177665, 18.5008110902947], [73.74078856177665, 18.498811090294698]]}}, {"type": "Feature", "geometry": {"type": "Point", "coordinates": [74.01466640737598, 18.54830052510169]}, "properties": {"id": "MPZ-020", "project_id": "MPZ", "project_name": "Mumbai-Pune Infrastructure Zone", "latitude": 18.54830052510169, "longitude": 74.01466640737598, "area_hectares": 4.18, "land_type": "agricultural", "ownership_status": "private_single", "acquisition_status": "not_started", "compensation_status": "fully_paid", "dispute_status": "no_dispute", "ownership_risk": 0, "legal_risk": 3, "compensation_risk": 1, "environmental_risk": 3, "social_risk": 1, "delay_risk": 3, "risk_score": 18.0, "risk_level": "Low", "district": "Pune", "state": "Maharashtra", "owner_reference": "OWNER-MPZ-020", "notes": "Prototype Dataset", "polygon_coords": [[74.01366640737598, 18.54730052510169], [74.01566640737599, 18.54730052510169], [74.01566640737599, 18.549300525101692], [74.01366640737598, 18.549300525101692], [74.01366640737598, 18.54730052510169]]}}, {"type": "Feature", "geometry": {"type": "Point", "coordinates": [74.10246582584615, 18.63607287319025]}, "properties": {"id": "MPZ-021", "project_id": "MPZ", "project_name": "Mumbai-Pune Infrastructure Zone", "latitude": 18.63607287319025, "longitude": 74.10246582584615, "area_hectares": 9.27, "land_type": "commercial", "ownership_status": "private_single", "acquisition_status": "in_progress", "compensation_status": "assessed", "dispute_status": "minor_dispute", "ownership_risk": 4, "legal_risk": 4, "compensation_risk": 2, "environmental_risk": 6, "social_risk": 3, "delay_risk": 2, "risk_score": 36.0, "risk_level": "Medium", "district": "Pune", "state": "Maharashtra", "owner_reference": "OWNER-MPZ-021", "notes": "Prototype Dataset", "polygon_coords": [[74.10146582584615, 18.63507287319025], [74.10346582584616, 18.63507287319025], [74.10346582584616, 18.637072873190252], [74.10146582584615, 18.637072873190252], [74.10146582584615, 18.63507287319025]]}}, {"type": "Feature", "geometry": {"type": "Point", "coordinates": [73.86048274299745, 18.66347654871293]}, "properties": {"id": "MPZ-022", "project_id": "MPZ", "project_name": "Mumbai-Pune Infrastructure Zone", "latitude": 18.66347654871293, "longitude": 73.86048274299745, "area_hectares": 11.61, "land_type": "industrial", "ownership_status": "private_multiple", "acquisition_status": "lapsed", "compensation_status": "disputed", "dispute_status": "minor_dispute", "ownership_risk": 6, "legal_risk": 5, "compensation_risk": 9, "environmental_risk": 5, "social_risk": 6, "delay_risk": 5, "risk_score": 61.0, "risk_level": "High", "district": "Pune", "state": "Maharashtra", "owner_reference": "OWNER-MPZ-022", "notes": "Prototype Dataset", "polygon_coords": [[73.85948274299744, 18.662476548712927], [73.86148274299745, 18.662476548712927], [73.86148274299745, 18.66447654871293], [73.85948274299744, 18.66447654871293], [73.85948274299744, 18.662476548712927]]}}, {"type": "Feature", "geometry": {"type": "Point", "coordinates": [74.18511920936, 18.49719145385669]}, "properties": {"id": "MPZ-023", "project_id": "MPZ", "project_name": "Mumbai-Pune Infrastructure Zone", "latitude": 18.49719145385669, "longitude": 74.18511920936, "area_hectares": 6.53, "land_type": "agricultural", "ownership_status": "government", "acquisition_status": "disputed", "compensation_status": "fully_paid", "dispute_status": "no_dispute", "ownership_risk": 0, "legal_risk": 1, "compensation_risk": 0, "environmental_risk": 1, "social_risk": 0, "delay_risk": 3, "risk_score": 7.0, "risk_level": "Low", "district": "Pune", "state": "Maharashtra", "owner_reference": "OWNER-MPZ-023", "notes": "Prototype Dataset", "polygon_coords": [[74.18411920935999, 18.49619145385669], [74.18611920936, 18.49619145385669], [74.18611920936, 18.49819145385669], [74.18411920935999, 18.49819145385669], [74.18411920935999, 18.49619145385669]]}}, {"type": "Feature", "geometry": {"type": "Point", "coordinates": [73.84682983520078, 18.79561374262475]}, "properties": {"id": "MPZ-024", "project_id": "MPZ", "project_name": "Mumbai-Pune Infrastructure Zone", "latitude": 18.79561374262475, "longitude": 73.84682983520078, "area_hectares": 13.06, "land_type": "industrial", "ownership_status": "disputed", "acquisition_status": "in_progress", "compensation_status": "disputed", "dispute_status": "court_case", "ownership_risk": 8, "legal_risk": 7, "compensation_risk": 8, "environmental_risk": 10, "social_risk": 8, "delay_risk": 8, "risk_score": 80.5, "risk_level": "Critical", "district": "Pune", "state": "Maharashtra", "owner_reference": "OWNER-MPZ-024", "notes": "Prototype Dataset", "polygon_coords": [[73.84582983520077, 18.794613742624747], [73.84782983520078, 18.794613742624747], [73.84782983520078, 18.79661374262475], [73.84582983520077, 18.79661374262475], [73.84582983520077, 18.794613742624747]]}}, {"type": "Feature", "geometry": {"type": "Point", "coordinates": [73.78000500456847, 18.82707323916757]}, "properties": {"id": "MPZ-025", "project_id": "MPZ", "project_name": "Mumbai-Pune Infrastructure Zone", "latitude": 18.82707323916757, "longitude": 73.78000500456847, "area_hectares": 8.62, "land_type": "agricultural", "ownership_status": "government", "acquisition_status": "disputed", "compensation_status": "approved", "dispute_status": "no_dispute", "ownership_risk": 1, "legal_risk": 1, "compensation_risk": 1, "environmental_risk": 3, "social_risk": 0, "delay_risk": 1, "risk_score": 12.0, "risk_level": "Low", "district": "Pune", "state": "Maharashtra", "owner_reference": "OWNER-MPZ-025", "notes": "Prototype Dataset", "polygon_coords": [[73.77900500456846, 18.82607323916757], [73.78100500456847, 18.82607323916757], [73.78100500456847, 18.828073239167573], [73.77900500456846, 18.828073239167573], [73.77900500456846, 18.82607323916757]]}}, {"type": "Feature", "geometry": {"type": "Point", "coordinates": [73.63178698857561, 18.78523261977475]}, "properties": {"id": "MPZ-026", "project_id": "MPZ", "project_name": "Mumbai-Pune Infrastructure Zone", "latitude": 18.78523261977475, "longitude": 73.63178698857561, "area_hectares": 13.69, "land_type": "agricultural", "ownership_status": "private_multiple", "acquisition_status": "completed", "compensation_status": "not_assessed", "dispute_status": "minor_dispute", "ownership_risk": 9, "legal_risk": 8, "compensation_risk": 5, "environmental_risk": 7, "social_risk": 5, "delay_risk": 5, "risk_score": 68.5, "risk_level": "High", "district": "Pune", "state": "Maharashtra", "owner_reference": "OWNER-MPZ-026", "notes": "Prototype Dataset", "polygon_coords": [[73.63078698857561, 18.78423261977475], [73.63278698857562, 18.78423261977475], [73.63278698857562, 18.78623261977475], [73.63078698857561, 18.78623261977475], [73.63078698857561, 18.78423261977475]]}}, {"type": "Feature", "geometry": {"type": "Point", "coordinates": [73.6731614005505, 18.806655051850818]}, "properties": {"id": "MPZ-027", "project_id": "MPZ", "project_name": "Mumbai-Pune Infrastructure Zone", "latitude": 18.806655051850818, "longitude": 73.6731614005505, "area_hectares": 8.07, "land_type": "commercial", "ownership_status": "private_single", "acquisition_status": "not_started", "compensation_status": "partially_paid", "dispute_status": "no_dispute", "ownership_risk": 4, "legal_risk": 6, "compensation_risk": 6, "environmental_risk": 5, "social_risk": 3, "delay_risk": 4, "risk_score": 49.5, "risk_level": "Medium", "district": "Pune", "state": "Maharashtra", "owner_reference": "OWNER-MPZ-027", "notes": "Prototype Dataset", "polygon_coords": [[73.6721614005505, 18.805655051850817], [73.6741614005505, 18.805655051850817], [73.6741614005505, 18.80765505185082], [73.6721614005505, 18.80765505185082], [73.6721614005505, 18.805655051850817]]}}, {"type": "Feature", "geometry": {"type": "Point", "coordinates": [74.03165828262468, 18.442945838926544]}, "properties": {"id": "MPZ-028", "project_id": "MPZ", "project_name": "Mumbai-Pune Infrastructure Zone", "latitude": 18.442945838926544, "longitude": 74.03165828262468, "area_hectares": 5.22, "land_type": "residential", "ownership_status": "government", "acquisition_status": "not_started", "compensation_status": "approved", "dispute_status": "no_dispute", "ownership_risk": 2, "legal_risk": 3, "compensation_risk": 1, "environmental_risk": 3, "social_risk": 2, "delay_risk": 3, "risk_score": 23.0, "risk_level": "Low", "district": "Pune", "state": "Maharashtra", "owner_reference": "OWNER-MPZ-028", "notes": "Prototype Dataset", "polygon_coords": [[74.03065828262467, 18.441945838926543], [74.03265828262468, 18.441945838926543], [74.03265828262468, 18.443945838926545], [74.03065828262467, 18.443945838926545], [74.03065828262467, 18.441945838926543]]}}, {"type": "Feature", "geometry": {"type": "Point", "coordinates": [73.88844586954168, 18.48265633030799]}, "properties": {"id": "MPZ-029", "project_id": "MPZ", "project_name": "Mumbai-Pune Infrastructure Zone", "latitude": 18.48265633030799, "longitude": 73.88844586954168, "area_hectares": 0.64, "land_type": "commercial", "ownership_status": "private_single", "acquisition_status": "in_progress", "compensation_status": "approved", "dispute_status": "no_dispute", "ownership_risk": 2, "legal_risk": 1, "compensation_risk": 0, "environmental_risk": 1, "social_risk": 1, "delay_risk": 3, "risk_score": 12.0, "risk_level": "Low", "district": "Pune", "state": "Maharashtra", "owner_reference": "OWNER-MPZ-029", "notes": "Prototype Dataset", "polygon_coords": [[73.88744586954168, 18.481656330307988], [73.88944586954169, 18.481656330307988], [73.88944586954169, 18.48365633030799], [73.88744586954168, 18.48365633030799], [73.88744586954168, 18.481656330307988]]}}, {"type": "Feature", "geometry": {"type": "Point", "coordinates": [74.02868140767207, 18.44825620308282]}, "properties": {"id": "MPZ-030", "project_id": "MPZ", "project_name": "Mumbai-Pune Infrastructure Zone", "latitude": 18.44825620308282, "longitude": 74.02868140767207, "area_hectares": 13.9, "land_type": "agricultural", "ownership_status": "private_single", "acquisition_status": "completed", "compensation_status": "fully_paid", "dispute_status": "no_dispute", "ownership_risk": 2, "legal_risk": 1, "compensation_risk": 2, "environmental_risk": 1, "social_risk": 2, "delay_risk": 1, "risk_score": 15.0, "risk_level": "Low", "district": "Pune", "state": "Maharashtra", "owner_reference": "OWNER-MPZ-030", "notes": "Prototype Dataset", "polygon_coords": [[74.02768140767206, 18.44725620308282], [74.02968140767207, 18.44725620308282], [74.02968140767207, 18.44925620308282], [74.02768140767206, 18.44925620308282], [74.02768140767206, 18.44725620308282]]}}, {"type": "Feature", "geometry": {"type": "Point", "coordinates": [73.74710310283938, 18.609750840711552]}, "properties": {"id": "MPZ-031", "project_id": "MPZ", "project_name": "Mumbai-Pune Infrastructure Zone", "latitude": 18.609750840711552, "longitude": 73.74710310283938, "area_hectares": 7.32, "land_type": "industrial", "ownership_status": "disputed", "acquisition_status": "in_progress", "compensation_status": "disputed", "dispute_status": "court_case", "ownership_risk": 9, "legal_risk": 10, "compensation_risk": 10, "environmental_risk": 9, "social_risk": 10, "delay_risk": 10, "risk_score": 96.5, "risk_level": "Critical", "district": "Pune", "state": "Maharashtra", "owner_reference": "OWNER-MPZ-031", "notes": "Prototype Dataset", "polygon_coords": [[73.74610310283937, 18.60875084071155], [73.74810310283938, 18.60875084071155], [73.74810310283938, 18.610750840711553], [73.74610310283937, 18.610750840711553], [73.74610310283937, 18.60875084071155]]}}, {"type": "Feature", "geometry": {"type": "Point", "coordinates": [74.01425994224769, 18.527829005285117]}, "properties": {"id": "MPZ-032", "project_id": "MPZ", "project_name": "Mumbai-Pune Infrastructure Zone", "latitude": 18.527829005285117, "longitude": 74.01425994224769, "area_hectares": 4.47, "land_type": "industrial", "ownership_status": "private_multiple", "acquisition_status": "in_progress", "compensation_status": "disputed", "dispute_status": "major_dispute", "ownership_risk": 7, "legal_risk": 7, "compensation_risk": 6, "environmental_risk": 7, "social_risk": 5, "delay_risk": 5, "risk_score": 64.0, "risk_level": "High", "district": "Pune", "state": "Maharashtra", "owner_reference": "OWNER-MPZ-032", "notes": "Prototype Dataset", "polygon_coords": [[74.01325994224769, 18.526829005285116], [74.0152599422477, 18.526829005285116], [74.0152599422477, 18.528829005285118], [74.01325994224769, 18.528829005285118], [74.01325994224769, 18.526829005285116]]}}, {"type": "Feature", "geometry": {"type": "Point", "coordinates": [73.692664451014, 18.808135426976367]}, "properties": {"id": "MPZ-033", "project_id": "MPZ", "project_name": "Mumbai-Pune Infrastructure Zone", "latitude": 18.808135426976367, "longitude": 73.692664451014, "area_hectares": 11.27, "land_type": "forest", "ownership_status": "disputed", "acquisition_status": "lapsed", "compensation_status": "disputed", "dispute_status": "court_case", "ownership_risk": 10, "legal_risk": 9, "compensation_risk": 9, "environmental_risk": 10, "social_risk": 9, "delay_risk": 10, "risk_score": 94.5, "risk_level": "Critical", "district": "Pune", "state": "Maharashtra", "owner_reference": "OWNER-MPZ-033", "notes": "Prototype Dataset", "polygon_coords": [[73.69166445101399, 18.807135426976366], [73.693664451014, 18.807135426976366], [73.693664451014, 18.80913542697637], [73.69166445101399, 18.80913542697637], [73.69166445101399, 18.807135426976366]]}}, {"type": "Feature", "geometry": {"type": "Point", "coordinates": [73.82406344026771, 18.50145815008202]}, "properties": {"id": "MPZ-034", "project_id": "MPZ", "project_name": "Mumbai-Pune Infrastructure Zone", "latitude": 18.50145815008202, "longitude": 73.82406344026771, "area_hectares": 12.04, "land_type": "forest", "ownership_status": "private_single", "acquisition_status": "disputed", "compensation_status": "approved", "dispute_status": "no_dispute", "ownership_risk": 1, "legal_risk": 3, "compensation_risk": 3, "environmental_risk": 1, "social_risk": 1, "delay_risk": 3, "risk_score": 21.0, "risk_level": "Low", "district": "Pune", "state": "Maharashtra", "owner_reference": "OWNER-MPZ-034", "notes": "Prototype Dataset", "polygon_coords": [[73.8230634402677, 18.500458150082018], [73.82506344026771, 18.500458150082018], [73.82506344026771, 18.50245815008202], [73.8230634402677, 18.50245815008202], [73.8230634402677, 18.500458150082018]]}}, {"type": "Feature", "geometry": {"type": "Point", "coordinates": [74.020247602569, 18.89132304165563]}, "properties": {"id": "MPZ-035", "project_id": "MPZ", "project_name": "Mumbai-Pune Infrastructure Zone", "latitude": 18.89132304165563, "longitude": 74.020247602569, "area_hectares": 14.69, "land_type": "commercial", "ownership_status": "private_single", "acquisition_status": "disputed", "compensation_status": "partially_paid", "dispute_status": "minor_dispute", "ownership_risk": 6, "legal_risk": 3, "compensation_risk": 5, "environmental_risk": 2, "social_risk": 3, "delay_risk": 3, "risk_score": 38.5, "risk_level": "Medium", "district": "Pune", "state": "Maharashtra", "owner_reference": "OWNER-MPZ-035", "notes": "Prototype Dataset", "polygon_coords": [[74.019247602569, 18.89032304165563], [74.021247602569, 18.89032304165563], [74.021247602569, 18.892323041655633], [74.019247602569, 18.892323041655633], [74.019247602569, 18.89032304165563]]}}, {"type": "Feature", "geometry": {"type": "Point", "coordinates": [73.76324188110655, 18.447660969781086]}, "properties": {"id": "MPZ-036", "project_id": "MPZ", "project_name": "Mumbai-Pune Infrastructure Zone", "latitude": 18.447660969781086, "longitude": 73.76324188110655, "area_hectares": 13.78, "land_type": "industrial", "ownership_status": "private_single", "acquisition_status": "lapsed", "compensation_status": "partially_paid", "dispute_status": "minor_dispute", "ownership_risk": 3, "legal_risk": 2, "compensation_risk": 5, "environmental_risk": 5, "social_risk": 5, "delay_risk": 2, "risk_score": 35.5, "risk_level": "Medium", "district": "Pune", "state": "Maharashtra", "owner_reference": "OWNER-MPZ-036", "notes": "Prototype Dataset", "polygon_coords": [[73.76224188110655, 18.446660969781085], [73.76424188110656, 18.446660969781085], [73.76424188110656, 18.448660969781088], [73.76224188110655, 18.448660969781088], [73.76224188110655, 18.446660969781085]]}}, {"type": "Feature", "geometry": {"type": "Point", "coordinates": [73.88740093240087, 18.73545719866408]}, "properties": {"id": "MPZ-037", "project_id": "MPZ", "project_name": "Mumbai-Pune Infrastructure Zone", "latitude": 18.73545719866408, "longitude": 73.88740093240087, "area_hectares": 4.25, "land_type": "residential", "ownership_status": "private_multiple", "acquisition_status": "disputed", "compensation_status": "disputed", "dispute_status": "minor_dispute", "ownership_risk": 8, "legal_risk": 9, "compensation_risk": 6, "environmental_risk": 5, "social_risk": 5, "delay_risk": 8, "risk_score": 71.0, "risk_level": "High", "district": "Pune", "state": "Maharashtra", "owner_reference": "OWNER-MPZ-037", "notes": "Prototype Dataset", "polygon_coords": [[73.88640093240086, 18.734457198664078], [73.88840093240087, 18.734457198664078], [73.88840093240087, 18.73645719866408], [73.88640093240086, 18.73645719866408], [73.88640093240086, 18.734457198664078]]}}, {"type": "Feature", "geometry": {"type": "Point", "coordinates": [74.13211276157604, 18.57530312766735]}, "properties": {"id": "MPZ-038", "project_id": "MPZ", "project_name": "Mumbai-Pune Infrastructure Zone", "latitude": 18.57530312766735, "longitude": 74.13211276157604, "area_hectares": 6.23, "land_type": "residential", "ownership_status": "private_single", "acquisition_status": "in_progress", "compensation_status": "approved", "dispute_status": "no_dispute", "ownership_risk": 1, "legal_risk": 2, "compensation_risk": 2, "environmental_risk": 2, "social_risk": 0, "delay_risk": 2, "risk_score": 16.0, "risk_level": "Low", "district": "Pune", "state": "Maharashtra", "owner_reference": "OWNER-MPZ-038", "notes": "Prototype Dataset", "polygon_coords": [[74.13111276157603, 18.57430312766735], [74.13311276157604, 18.57430312766735], [74.13311276157604, 18.57630312766735], [74.13111276157603, 18.57630312766735], [74.13111276157603, 18.57430312766735]]}}, {"type": "Feature", "geometry": {"type": "Point", "coordinates": [74.1466121204251, 18.403424148399797]}, "properties": {"id": "MPZ-039", "project_id": "MPZ", "project_name": "Mumbai-Pune Infrastructure Zone", "latitude": 18.403424148399797, "longitude": 74.1466121204251, "area_hectares": 9.01, "land_type": "commercial", "ownership_status": "private_single", "acquisition_status": "lapsed", "compensation_status": "assessed", "dispute_status": "minor_dispute", "ownership_risk": 2, "legal_risk": 5, "compensation_risk": 4, "environmental_risk": 6, "social_risk": 5, "delay_risk": 4, "risk_score": 42.5, "risk_level": "Medium", "district": "Pune", "state": "Maharashtra", "owner_reference": "OWNER-MPZ-039", "notes": "Prototype Dataset", "polygon_coords": [[74.1456121204251, 18.402424148399795], [74.14761212042511, 18.402424148399795], [74.14761212042511, 18.404424148399798], [74.1456121204251, 18.404424148399798], [74.1456121204251, 18.402424148399795]]}}, {"type": "Feature", "geometry": {"type": "Point", "coordinates": [74.15951337361123, 18.768826879928742]}, "properties": {"id": "MPZ-040", "project_id": "MPZ", "project_name": "Mumbai-Pune Infrastructure Zone", "latitude": 18.768826879928742, "longitude": 74.15951337361123, "area_hectares": 12.29, "land_type": "commercial", "ownership_status": "private_multiple", "acquisition_status": "in_progress", "compensation_status": "disputed", "dispute_status": "major_dispute", "ownership_risk": 9, "legal_risk": 8, "compensation_risk": 7, "environmental_risk": 5, "social_risk": 6, "delay_risk": 7, "risk_score": 72.5, "risk_level": "High", "district": "Pune", "state": "Maharashtra", "owner_reference": "OWNER-MPZ-040", "notes": "Prototype Dataset", "polygon_coords": [[74.15851337361123, 18.76782687992874], [74.16051337361124, 18.76782687992874], [74.16051337361124, 18.769826879928743], [74.15851337361123, 18.769826879928743], [74.15851337361123, 18.76782687992874]]}}, {"type": "Feature", "geometry": {"type": "Point", "coordinates": [73.80357036780202, 18.67760101837482]}, "properties": {"id": "MPZ-041", "project_id": "MPZ", "project_name": "Mumbai-Pune Infrastructure Zone", "latitude": 18.67760101837482, "longitude": 73.80357036780202, "area_hectares": 3.43, "land_type": "agricultural", "ownership_status": "government", "acquisition_status": "not_started", "compensation_status": "approved", "dispute_status": "no_dispute", "ownership_risk": 0, "legal_risk": 0, "compensation_risk": 1, "environmental_risk": 2, "social_risk": 0, "delay_risk": 2, "risk_score": 7.0, "risk_level": "Low", "district": "Pune", "state": "Maharashtra", "owner_reference": "OWNER-MPZ-041", "notes": "Prototype Dataset", "polygon_coords": [[73.80257036780202, 18.676601018374818], [73.80457036780203, 18.676601018374818], [73.80457036780203, 18.67860101837482], [73.80257036780202, 18.67860101837482], [73.80257036780202, 18.676601018374818]]}}, {"type": "Feature", "geometry": {"type": "Point", "coordinates": [73.83963090684169, 18.55990679387782]}, "properties": {"id": "MPZ-042", "project_id": "MPZ", "project_name": "Mumbai-Pune Infrastructure Zone", "latitude": 18.55990679387782, "longitude": 73.83963090684169, "area_hectares": 10.02, "land_type": "agricultural", "ownership_status": "private_multiple", "acquisition_status": "disputed", "compensation_status": "disputed", "dispute_status": "major_dispute", "ownership_risk": 6, "legal_risk": 5, "compensation_risk": 5, "environmental_risk": 6, "social_risk": 6, "delay_risk": 7, "risk_score": 56.5, "risk_level": "High", "district": "Pune", "state": "Maharashtra", "owner_reference": "OWNER-MPZ-042", "notes": "Prototype Dataset", "polygon_coords": [[73.83863090684169, 18.558906793877817], [73.8406309068417, 18.558906793877817], [73.8406309068417, 18.56090679387782], [73.83863090684169, 18.56090679387782], [73.83863090684169, 18.558906793877817]]}}, {"type": "Feature", "geometry": {"type": "Point", "coordinates": [74.02828953637645, 18.410106194938493]}, "properties": {"id": "MPZ-043", "project_id": "MPZ", "project_name": "Mumbai-Pune Infrastructure Zone", "latitude": 18.410106194938493, "longitude": 74.02828953637645, "area_hectares": 3.59, "land_type": "commercial", "ownership_status": "disputed", "acquisition_status": "not_started", "compensation_status": "disputed", "dispute_status": "court_case", "ownership_risk": 10, "legal_risk": 7, "compensation_risk": 9, "environmental_risk": 9, "social_risk": 10, "delay_risk": 7, "risk_score": 86.0, "risk_level": "Critical", "district": "Pune", "state": "Maharashtra", "owner_reference": "OWNER-MPZ-043", "notes": "Prototype Dataset", "polygon_coords": [[74.02728953637644, 18.40910619493849], [74.02928953637645, 18.40910619493849], [74.02928953637645, 18.411106194938494], [74.02728953637644, 18.411106194938494], [74.02728953637644, 18.40910619493849]]}}, {"type": "Feature", "geometry": {"type": "Point", "coordinates": [73.6909977030159, 18.53335450036697]}, "properties": {"id": "MPZ-044", "project_id": "MPZ", "project_name": "Mumbai-Pune Infrastructure Zone", "latitude": 18.53335450036697, "longitude": 73.6909977030159, "area_hectares": 3.95, "land_type": "agricultural", "ownership_status": "private_multiple", "acquisition_status": "completed", "compensation_status": "disputed", "dispute_status": "major_dispute", "ownership_risk": 7, "legal_risk": 9, "compensation_risk": 8, "environmental_risk": 7, "social_risk": 8, "delay_risk": 5, "risk_score": 76.0, "risk_level": "Critical", "district": "Pune", "state": "Maharashtra", "owner_reference": "OWNER-MPZ-044", "notes": "Prototype Dataset", "polygon_coords": [[73.68999770301589, 18.532354500366967], [73.6919977030159, 18.532354500366967], [73.6919977030159, 18.53435450036697], [73.68999770301589, 18.53435450036697], [73.68999770301589, 18.532354500366967]]}}, {"type": "Feature", "geometry": {"type": "Point", "coordinates": [73.80079085507289, 18.45636787711052]}, "properties": {"id": "MPZ-045", "project_id": "MPZ", "project_name": "Mumbai-Pune Infrastructure Zone", "latitude": 18.45636787711052, "longitude": 73.80079085507289, "area_hectares": 11.25, "land_type": "agricultural", "ownership_status": "private_multiple", "acquisition_status": "in_progress", "compensation_status": "disputed", "dispute_status": "minor_dispute", "ownership_risk": 7, "legal_risk": 6, "compensation_risk": 8, "environmental_risk": 6, "social_risk": 9, "delay_risk": 7, "risk_score": 70.0, "risk_level": "High", "district": "Pune", "state": "Maharashtra", "owner_reference": "OWNER-MPZ-045", "notes": "Prototype Dataset", "polygon_coords": [[73.79979085507289, 18.45536787711052], [73.8017908550729, 18.45536787711052], [73.8017908550729, 18.45736787711052], [73.79979085507289, 18.45736787711052], [73.79979085507289, 18.45536787711052]]}}, {"type": "Feature", "geometry": {"type": "Point", "coordinates": [73.93423252835808, 18.431118208495974]}, "properties": {"id": "MPZ-046", "project_id": "MPZ", "project_name": "Mumbai-Pune Infrastructure Zone", "latitude": 18.431118208495974, "longitude": 73.93423252835808, "area_hectares": 8.4, "land_type": "industrial", "ownership_status": "government", "acquisition_status": "disputed", "compensation_status": "approved", "dispute_status": "no_dispute", "ownership_risk": 3, "legal_risk": 3, "compensation_risk": 0, "environmental_risk": 2, "social_risk": 2, "delay_risk": 0, "risk_score": 18.5, "risk_level": "Low", "district": "Pune", "state": "Maharashtra", "owner_reference": "OWNER-MPZ-046", "notes": "Prototype Dataset", "polygon_coords": [[73.93323252835808, 18.430118208495973], [73.93523252835809, 18.430118208495973], [73.93523252835809, 18.432118208495975], [73.93323252835808, 18.432118208495975], [73.93323252835808, 18.430118208495973]]}}, {"type": "Feature", "geometry": {"type": "Point", "coordinates": [73.91655577894164, 18.659823302693162]}, "properties": {"id": "MPZ-047", "project_id": "MPZ", "project_name": "Mumbai-Pune Infrastructure Zone", "latitude": 18.659823302693162, "longitude": 73.91655577894164, "area_hectares": 14.06, "land_type": "industrial", "ownership_status": "private_multiple", "acquisition_status": "not_started", "compensation_status": "not_assessed", "dispute_status": "minor_dispute", "ownership_risk": 9, "legal_risk": 6, "compensation_risk": 6, "environmental_risk": 5, "social_risk": 5, "delay_risk": 9, "risk_score": 66.5, "risk_level": "High", "district": "Pune", "state": "Maharashtra", "owner_reference": "OWNER-MPZ-047", "notes": "Prototype Dataset", "polygon_coords": [[73.91555577894164, 18.65882330269316], [73.91755577894165, 18.65882330269316], [73.91755577894165, 18.660823302693164], [73.91555577894164, 18.660823302693164], [73.91555577894164, 18.65882330269316]]}}, {"type": "Feature", "geometry": {"type": "Point", "coordinates": [73.6607346660647, 18.775790659242006]}, "properties": {"id": "MPZ-048", "project_id": "MPZ", "project_name": "Mumbai-Pune Infrastructure Zone", "latitude": 18.775790659242006, "longitude": 73.6607346660647, "area_hectares": 5.52, "land_type": "industrial", "ownership_status": "government", "acquisition_status": "lapsed", "compensation_status": "approved", "dispute_status": "no_dispute", "ownership_risk": 2, "legal_risk": 0, "compensation_risk": 2, "environmental_risk": 2, "social_risk": 1, "delay_risk": 0, "risk_score": 12.0, "risk_level": "Low", "district": "Pune", "state": "Maharashtra", "owner_reference": "OWNER-MPZ-048", "notes": "Prototype Dataset", "polygon_coords": [[73.6597346660647, 18.774790659242004], [73.6617346660647, 18.774790659242004], [73.6617346660647, 18.776790659242007], [73.6597346660647, 18.776790659242007], [73.6597346660647, 18.774790659242004]]}}, {"type": "Feature", "geometry": {"type": "Point", "coordinates": [73.85452579775585, 18.642683446836756]}, "properties": {"id": "MPZ-049", "project_id": "MPZ", "project_name": "Mumbai-Pune Infrastructure Zone", "latitude": 18.642683446836756, "longitude": 73.85452579775585, "area_hectares": 11.3, "land_type": "industrial", "ownership_status": "private_single", "acquisition_status": "lapsed", "compensation_status": "partially_paid", "dispute_status": "no_dispute", "ownership_risk": 6, "legal_risk": 4, "compensation_risk": 3, "environmental_risk": 2, "social_risk": 6, "delay_risk": 4, "risk_score": 41.0, "risk_level": "Medium", "district": "Pune", "state": "Maharashtra", "owner_reference": "OWNER-MPZ-049", "notes": "Prototype Dataset", "polygon_coords": [[73.85352579775585, 18.641683446836755], [73.85552579775586, 18.641683446836755], [73.85552579775586, 18.643683446836757], [73.85352579775585, 18.643683446836757], [73.85352579775585, 18.641683446836755]]}}, {"type": "Feature", "geometry": {"type": "Point", "coordinates": [73.7905149695256, 18.891179791592343]}, "properties": {"id": "MPZ-050", "project_id": "MPZ", "project_name": "Mumbai-Pune Infrastructure Zone", "latitude": 18.891179791592343, "longitude": 73.7905149695256, "area_hectares": 9.7, "land_type": "commercial", "ownership_status": "private_single", "acquisition_status": "completed", "compensation_status": "fully_paid", "dispute_status": "no_dispute", "ownership_risk": 1, "legal_risk": 3, "compensation_risk": 2, "environmental_risk": 0, "social_risk": 2, "delay_risk": 2, "risk_score": 17.5, "risk_level": "Low", "district": "Pune", "state": "Maharashtra", "owner_reference": "OWNER-MPZ-050", "notes": "Prototype Dataset", "polygon_coords": [[73.7895149695256, 18.89017979159234], [73.79151496952561, 18.89017979159234], [73.79151496952561, 18.892179791592344], [73.7895149695256, 18.892179791592344], [73.7895149695256, 18.89017979159234]]}}, {"type": "Feature", "geometry": {"type": "Point", "coordinates": [73.9796729620101, 18.457371103289187]}, "properties": {"id": "MPZ-051", "project_id": "MPZ", "project_name": "Mumbai-Pune Infrastructure Zone", "latitude": 18.457371103289187, "longitude": 73.9796729620101, "area_hectares": 3.49, "land_type": "forest", "ownership_status": "private_single", "acquisition_status": "lapsed", "compensation_status": "assessed", "dispute_status": "no_dispute", "ownership_risk": 5, "legal_risk": 2, "compensation_risk": 2, "environmental_risk": 3, "social_risk": 6, "delay_risk": 5, "risk_score": 34.5, "risk_level": "Medium", "district": "Pune", "state": "Maharashtra", "owner_reference": "OWNER-MPZ-051", "notes": "Prototype Dataset", "polygon_coords": [[73.9786729620101, 18.456371103289186], [73.9806729620101, 18.456371103289186], [73.9806729620101, 18.45837110328919], [73.9786729620101, 18.45837110328919], [73.9786729620101, 18.456371103289186]]}}, {"type": "Feature", "geometry": {"type": "Point", "coordinates": [73.9372908760427, 18.791991788168698]}, "properties": {"id": "MPZ-052", "project_id": "MPZ", "project_name": "Mumbai-Pune Infrastructure Zone", "latitude": 18.791991788168698, "longitude": 73.9372908760427, "area_hectares": 3.82, "land_type": "forest", "ownership_status": "private_single", "acquisition_status": "completed", "compensation_status": "assessed", "dispute_status": "no_dispute", "ownership_risk": 6, "legal_risk": 2, "compensation_risk": 5, "environmental_risk": 6, "social_risk": 5, "delay_risk": 6, "risk_score": 47.0, "risk_level": "Medium", "district": "Pune", "state": "Maharashtra", "owner_reference": "OWNER-MPZ-052", "notes": "Prototype Dataset", "polygon_coords": [[73.93629087604269, 18.790991788168697], [73.9382908760427, 18.790991788168697], [73.9382908760427, 18.7929917881687], [73.93629087604269, 18.7929917881687], [73.93629087604269, 18.790991788168697]]}}, {"type": "Feature", "geometry": {"type": "Point", "coordinates": [73.97035987626349, 18.50276074553118]}, "properties": {"id": "MPZ-053", "project_id": "MPZ", "project_name": "Mumbai-Pune Infrastructure Zone", "latitude": 18.50276074553118, "longitude": 73.97035987626349, "area_hectares": 0.51, "land_type": "industrial", "ownership_status": "private_multiple", "acquisition_status": "completed", "compensation_status": "not_assessed", "dispute_status": "major_dispute", "ownership_risk": 9, "legal_risk": 9, "compensation_risk": 7, "environmental_risk": 8, "social_risk": 7, "delay_risk": 8, "risk_score": 81.5, "risk_level": "Critical", "district": "Pune", "state": "Maharashtra", "owner_reference": "OWNER-MPZ-053", "notes": "Prototype Dataset", "polygon_coords": [[73.96935987626348, 18.50176074553118], [73.97135987626349, 18.50176074553118], [73.97135987626349, 18.50376074553118], [73.96935987626348, 18.50376074553118], [73.96935987626348, 18.50176074553118]]}}, {"type": "Feature", "geometry": {"type": "Point", "coordinates": [73.96061777336674, 18.47541222283203]}, "properties": {"id": "MPZ-054", "project_id": "MPZ", "project_name": "Mumbai-Pune Infrastructure Zone", "latitude": 18.47541222283203, "longitude": 73.96061777336674, "area_hectares": 11.17, "land_type": "commercial", "ownership_status": "private_single", "acquisition_status": "completed", "compensation_status": "assessed", "dispute_status": "no_dispute", "ownership_risk": 3, "legal_risk": 2, "compensation_risk": 6, "environmental_risk": 3, "social_risk": 5, "delay_risk": 4, "risk_score": 36.5, "risk_level": "Medium", "district": "Pune", "state": "Maharashtra", "owner_reference": "OWNER-MPZ-054", "notes": "Prototype Dataset", "polygon_coords": [[73.95961777336673, 18.47441222283203], [73.96161777336674, 18.47441222283203], [73.96161777336674, 18.47641222283203], [73.95961777336673, 18.47641222283203], [73.95961777336673, 18.47441222283203]]}}, {"type": "Feature", "geometry": {"type": "Point", "coordinates": [74.01757275047646, 18.73853593158526]}, "properties": {"id": "MPZ-055", "project_id": "MPZ", "project_name": "Mumbai-Pune Infrastructure Zone", "latitude": 18.73853593158526, "longitude": 74.01757275047646, "area_hectares": 13.09, "land_type": "agricultural", "ownership_status": "private_multiple", "acquisition_status": "lapsed", "compensation_status": "disputed", "dispute_status": "minor_dispute", "ownership_risk": 9, "legal_risk": 5, "compensation_risk": 6, "environmental_risk": 6, "social_risk": 8, "delay_risk": 7, "risk_score": 66.5, "risk_level": "High", "district": "Pune", "state": "Maharashtra", "owner_reference": "OWNER-MPZ-055", "notes": "Prototype Dataset", "polygon_coords": [[74.01657275047646, 18.73753593158526], [74.01857275047647, 18.73753593158526], [74.01857275047647, 18.739535931585262], [74.01657275047646, 18.739535931585262], [74.01657275047646, 18.73753593158526]]}}, {"type": "Feature", "geometry": {"type": "Point", "coordinates": [74.11963948531857, 18.6833664382353]}, "properties": {"id": "MPZ-056", "project_id": "MPZ", "project_name": "Mumbai-Pune Infrastructure Zone", "latitude": 18.6833664382353, "longitude": 74.11963948531857, "area_hectares": 9.93, "land_type": "residential", "ownership_status": "private_single", "acquisition_status": "in_progress", "compensation_status": "partially_paid", "dispute_status": "no_dispute", "ownership_risk": 2, "legal_risk": 2, "compensation_risk": 3, "environmental_risk": 6, "social_risk": 3, "delay_risk": 2, "risk_score": 29.0, "risk_level": "Medium", "district": "Pune", "state": "Maharashtra", "owner_reference": "OWNER-MPZ-056", "notes": "Prototype Dataset", "polygon_coords": [[74.11863948531857, 18.6823664382353], [74.12063948531858, 18.6823664382353], [74.12063948531858, 18.6843664382353], [74.11863948531857, 18.6843664382353], [74.11863948531857, 18.6823664382353]]}}, {"type": "Feature", "geometry": {"type": "Point", "coordinates": [73.92303764593949, 18.872231903885467]}, "properties": {"id": "MPZ-057", "project_id": "MPZ", "project_name": "Mumbai-Pune Infrastructure Zone", "latitude": 18.872231903885467, "longitude": 73.92303764593949, "area_hectares": 3.24, "land_type": "residential", "ownership_status": "private_multiple", "acquisition_status": "not_started", "compensation_status": "disputed", "dispute_status": "minor_dispute", "ownership_risk": 5, "legal_risk": 9, "compensation_risk": 9, "environmental_risk": 9, "social_risk": 8, "delay_risk": 9, "risk_score": 81.0, "risk_level": "Critical", "district": "Pune", "state": "Maharashtra", "owner_reference": "OWNER-MPZ-057", "notes": "Prototype Dataset", "polygon_coords": [[73.92203764593948, 18.871231903885466], [73.92403764593949, 18.871231903885466], [73.92403764593949, 18.87323190388547], [73.92203764593948, 18.87323190388547], [73.92203764593948, 18.871231903885466]]}}, {"type": "Feature", "geometry": {"type": "Point", "coordinates": [73.92090369290686, 18.53213901702193]}, "properties": {"id": "MPZ-058", "project_id": "MPZ", "project_name": "Mumbai-Pune Infrastructure Zone", "latitude": 18.53213901702193, "longitude": 73.92090369290686, "area_hectares": 12.97, "land_type": "residential", "ownership_status": "private_single", "acquisition_status": "disputed", "compensation_status": "partially_paid", "dispute_status": "minor_dispute", "ownership_risk": 5, "legal_risk": 4, "compensation_risk": 4, "environmental_risk": 5, "social_risk": 4, "delay_risk": 3, "risk_score": 42.5, "risk_level": "Medium", "district": "Pune", "state": "Maharashtra", "owner_reference": "OWNER-MPZ-058", "notes": "Prototype Dataset", "polygon_coords": [[73.91990369290686, 18.53113901702193], [73.92190369290687, 18.53113901702193], [73.92190369290687, 18.53313901702193], [73.91990369290686, 18.53313901702193], [73.91990369290686, 18.53113901702193]]}}, {"type": "Feature", "geometry": {"type": "Point", "coordinates": [74.03422096223944, 18.418525942423578]}, "properties": {"id": "MPZ-059", "project_id": "MPZ", "project_name": "Mumbai-Pune Infrastructure Zone", "latitude": 18.418525942423578, "longitude": 74.03422096223944, "area_hectares": 2.6, "land_type": "residential", "ownership_status": "private_single", "acquisition_status": "not_started", "compensation_status": "assessed", "dispute_status": "minor_dispute", "ownership_risk": 5, "legal_risk": 5, "compensation_risk": 2, "environmental_risk": 6, "social_risk": 4, "delay_risk": 2, "risk_score": 41.5, "risk_level": "Medium", "district": "Pune", "state": "Maharashtra", "owner_reference": "OWNER-MPZ-059", "notes": "Prototype Dataset", "polygon_coords": [[74.03322096223944, 18.417525942423577], [74.03522096223945, 18.417525942423577], [74.03522096223945, 18.41952594242358], [74.03322096223944, 18.41952594242358], [74.03322096223944, 18.417525942423577]]}}, {"type": "Feature", "geometry": {"type": "Point", "coordinates": [74.13876610991035, 18.71858644891846]}, "properties": {"id": "MPZ-060", "project_id": "MPZ", "project_name": "Mumbai-Pune Infrastructure Zone", "latitude": 18.71858644891846, "longitude": 74.13876610991035, "area_hectares": 1.78, "land_type": "agricultural", "ownership_status": "private_single", "acquisition_status": "disputed", "compensation_status": "approved", "dispute_status": "no_dispute", "ownership_risk": 3, "legal_risk": 1, "compensation_risk": 2, "environmental_risk": 0, "social_risk": 0, "delay_risk": 2, "risk_score": 14.5, "risk_level": "Low", "district": "Pune", "state": "Maharashtra", "owner_reference": "OWNER-MPZ-060", "notes": "Prototype Dataset", "polygon_coords": [[74.13776610991034, 18.71758644891846], [74.13976610991035, 18.71758644891846], [74.13976610991035, 18.719586448918463], [74.13776610991034, 18.719586448918463], [74.13776610991034, 18.71758644891846]]}}]}