{"type": "FeatureCollection", "features": [{"type": "Feature", "geometry": {"type": "Point", "coordinates": [79.60252651351118, 21.26480220938319]}, "properties": {"id": "NH44-001", "project_id": "NH44", "project_name": "NH-44 Expressway Corridor", "latitude": 21.26480220938319, "longitude": 79.60252651351118, "area_hectares": 8.45, "land_type": "agricultural", "ownership_status": "private_multiple", "acquisition_status": "not_started", "compensation_status": "disputed", "dispute_status": "minor_dispute", "ownership_risk": 9, "legal_risk": 7, "compensation_risk": 7, "environmental_risk": 6, "social_risk": 6, "delay_risk": 9, "risk_score": 73.5, "risk_level": "High", "district": "Nagpur", "state": "Maharashtra", "owner_reference": "OWNER-NH44-001", "notes": "Prototype Dataset", "polygon_coords": [[79.60152651351117, 21.26380220938319], [79.60352651351118, 21.26380220938319], [79.60352651351118, 21.265802209383192], [79.60152651351117, 21.265802209383192], [79.60152651351117, 21.26380220938319]]}}, {"type": "Feature", "geometry": {"type": "Point", "coordinates": [79.17808773014977, 21.056577353782156]}, "properties": {"id": "NH44-002", "project_id": "NH44", "project_name": "NH-44 Expressway Corridor", "latitude": 21.056577353782156, "longitude": 79.17808773014977, "area_hectares": 11.71, "land_type": "industrial", "ownership_status": "private_single", "acquisition_status": "disputed", "compensation_status": "assessed", "dispute_status": "minor_dispute", "ownership_risk": 2, "legal_risk": 4, "compensation_risk": 3, "environmental_risk": 5, "social_risk": 5, "delay_risk": 6, "risk_score": 38.5, "risk_level": "Medium", "district": "Nagpur", "state": "Maharashtra", "owner_reference": "OWNER-NH44-002", "notes": "Prototype Dataset", "polygon_coords": [[79.17708773014976, 21.055577353782155], [79.17908773014977, 21.055577353782155], [79.17908773014977, 21.057577353782158], [79.17708773014976, 21.057577353782158], [79.17708773014976, 21.055577353782155]]}}, {"type": "Feature", "geometry": {"type": "Point", "coordinates": [79.75702186251632, 21.486553769705875]}, "properties": {"id": "NH44-003", "project_id": "NH44", "project_name": "NH-44 Expressway Corridor", "latitude": 21.486553769705875, "longitude": 79.75702186251632, "area_hectares": 13.58, "land_type": "forest", "ownership_status": "disputed", "acquisition_status": "not_started", "compensation_status": "disputed", "dispute_status": "court_case", "ownership_risk": 10, "legal_risk": 7, "compensation_risk": 7, "environmental_risk": 7, "social_risk": 10, "delay_risk": 10, "risk_score": 82.0, "risk_level": "Critical", "district": "Nagpur", "state": "Maharashtra", "owner_reference": "OWNER-NH44-003", "notes": "Prototype Dataset", "polygon_coords": [[79.75602186251632, 21.485553769705874], [79.75802186251633, 21.485553769705874], [79.75802186251633, 21.487553769705876], [79.75602186251632, 21.487553769705876], [79.75602186251632, 21.485553769705874]]}}, {"type": "Feature", "geometry": {"type": "Point", "coordinates": [79.01747362285717, 21.371455286553623]}, "properties": {"id": "NH44-004", "project_id": "NH44", "project_name": "NH-44 Expressway Corridor", "latitude": 21.371455286553623, "longitude": 79.01747362285717, "area_hectares": 8.12, "land_type": "agricultural", "ownership_status": "private_single", "acquisition_status": "lapsed", "compensation_status": "partially_paid", "dispute_status": "minor_dispute", "ownership_risk": 4, "legal_risk": 2, "compensation_risk": 6, "environmental_risk": 5, "social_risk": 2, "delay_risk": 3, "risk_score": 37.5, "risk_level": "Medium", "district": "Nagpur", "state": "Maharashtra", "owner_reference": "OWNER-NH44-004", "notes": "Prototype Dataset", "polygon_coords": [[79.01647362285716, 21.37045528655362], [79.01847362285717, 21.37045528655362], [79.01847362285717, 21.372455286553624], [79.01647362285716, 21.372455286553624], [79.01647362285716, 21.37045528655362]]}}, {"type": "Feature", "geometry": {"type": "Point", "coordinates": [79.73504234885792, 21.07303218189664]}, "properties": {"id": "NH44-005", "project_id": "NH44", "project_name": "NH-44 Expressway Corridor", "latitude": 21.07303218189664, "longitude": 79.73504234885792, "area_hectares": 4.33, "land_type": "industrial", "ownership_status": "private_single", "acquisition_status": "completed", "compensation_status": "fully_paid", "dispute_status": "no_dispute", "ownership_risk": 1, "legal_risk": 2, "compensation_risk": 0, "environmental_risk": 2, "social_risk": 1, "delay_risk": 0, "risk_score": 11.0, "risk_level": "Low", "district": "Nagpur", "state": "Maharashtra", "owner_reference": "OWNER-NH44-005", "notes": "Prototype Dataset", "polygon_coords": [[79.73404234885791, 21.07203218189664], [79.73604234885792, 21.07203218189664], [79.73604234885792, 21.07403218189664], [79.73404234885791, 21.07403218189664], [79.73404234885791, 21.07203218189664]]}}, {"type": "Feature", "geometry": {"type": "Point", "coordinates": [79.22527106562389, 21.074010331102528]}, "properties": {"id": "NH44-006", "project_id": "NH44", "project_name": "NH-44 Expressway Corridor", "latitude": 21.074010331102528, "longitude": 79.22527106562389, "area_hectares": 12.43, "land_type": "industrial", "ownership_status": "private_single", "acquisition_status": "completed", "compensation_status": "partially_paid", "dispute_status": "minor_dispute", "ownership_risk": 5, "legal_risk": 3, "compensation_risk": 2, "environmental_risk": 4, "social_risk": 6, "delay_risk": 6, "risk_score": 39.5, "risk_level": "Medium", "district": "Nagpur", "state": "Maharashtra", "owner_reference": "OWNER-NH44-006", "notes": "Prototype Dataset", "polygon_coords": [[79.22427106562388, 21.073010331102527], [79.22627106562389, 21.073010331102527], [79.22627106562389, 21.07501033110253], [79.22427106562388, 21.07501033110253], [79.22427106562388, 21.073010331102527]]}}, {"type": "Feature", "geometry": {"type": "Point", "coordinates": [79.07883197133049, 21.27466382049665]}, "properties": {"id": "NH44-007", "project_id": "NH44", "project_name": "NH-44 Expressway Corridor", "latitude": 21.27466382049665, "longitude": 79.07883197133049, "area_hectares": 14.25, "land_type": "residential", "ownership_status": "private_single", "acquisition_status": "not_started", "compensation_status": "partially_paid", "dispute_status": "minor_dispute", "ownership_risk": 4, "legal_risk": 4, "compensation_risk": 4, "environmental_risk": 4, "social_risk": 3, "delay_risk": 5, "risk_score": 40.0, "risk_level": "Medium", "district": "Nagpur", "state": "Maharashtra", "owner_reference": "OWNER-NH44-007", "notes": "Prototype Dataset", "polygon_coords": [[79.07783197133048, 21.273663820496648], [79.07983197133049, 21.273663820496648], [79.07983197133049, 21.27566382049665], [79.07783197133048, 21.27566382049665], [79.07783197133048, 21.273663820496648]]}}, {"type": "Feature", "geometry": {"type": "Point", "coordinates": [79.73874979474459, 21.361963163567065]}, "properties": {"id": "NH44-008", "project_id": "NH44", "project_name": "NH-44 Expressway Corridor", "latitude": 21.361963163567065, "longitude": 79.73874979474459, "area_hectares": 5.57, "land_type": "industrial", "ownership_status": "private_single", "acquisition_status": "completed", "compensation_status": "partially_paid", "dispute_status": "no_dispute", "ownership_risk": 3, "legal_risk": 3, "compensation_risk": 5, "environmental_risk": 5, "social_risk": 3, "delay_risk": 6, "risk_score": 40.0, "risk_level": "Medium", "district": "Nagpur", "state": "Maharashtra", "owner_reference": "OWNER-NH44-008", "notes": "Prototype Dataset", "polygon_coords": [[79.73774979474459, 21.360963163567064], [79.7397497947446, 21.360963163567064], [79.7397497947446, 21.362963163567066], [79.73774979474459, 21.362963163567066], [79.73774979474459, 21.360963163567064]]}}, {"type": "Feature", "geometry": {"type": "Point", "coordinates": [79.36217617915943, 21.450587810037756]}, "properties": {"id": "NH44-009", "project_id": "NH44", "project_name": "NH-44 Expressway Corridor", "latitude": 21.450587810037756, "longitude": 79.36217617915943, "area_hectares": 7.71, "land_type": "commercial", "ownership_status": "private_single", "acquisition_status": "lapsed", "compensation_status": "partially_paid", "dispute_status": "no_dispute", "ownership_risk": 3, "legal_risk": 3, "compensation_risk": 3, "environmental_risk": 3, "social_risk": 5, "delay_risk": 4, "risk_score": 33.0, "risk_level": "Medium", "district": "Nagpur", "state": "Maharashtra", "owner_reference": "OWNER-NH44-009", "notes": "Prototype Dataset", "polygon_coords": [[79.36117617915943, 21.449587810037755], [79.36317617915944, 21.449587810037755], [79.36317617915944, 21.451587810037758], [79.36117617915943, 21.451587810037758], [79.36117617915943, 21.449587810037755]]}}, {"type": "Feature", "geometry": {"type": "Point", "coordinates": [79.50133137432259, 21.1329090908254]}, "properties": {"id": "NH44-010", "project_id": "NH44", "project_name": "NH-44 Expressway Corridor", "latitude": 21.1329090908254, "longitude": 79.50133137432259, "area_hectares": 14.83, "land_type": "industrial", "ownership_status": "private_multiple", "acquisition_status": "not_started", "compensation_status": "disputed", "dispute_status": "minor_dispute", "ownership_risk": 7, "legal_risk": 5, "compensation_risk": 5, "environmental_risk": 5, "social_risk": 5, "delay_risk": 8, "risk_score": 57.0, "risk_level": "High", "district": "Nagpur", "state": "Maharashtra", "owner_reference": "OWNER-NH44-010", "notes": "Prototype Dataset", "polygon_coords": [[79.50033137432258, 21.1319090908254], [79.5023313743226, 21.1319090908254], [79.5023313743226, 21.1339090908254], [79.50033137432258, 21.1339090908254], [79.50033137432258, 21.1319090908254]]}}, {"type": "Feature", "geometry": {"type": "Point", "coordinates": [79.00416414542023, 21.09450650894371]}, "properties": {"id": "NH44-011", "project_id": "NH44", "project_name": "NH-44 Expressway Corridor", "latitude": 21.09450650894371, "longitude": 79.00416414542023, "area_hectares": 3.02, "land_type": "forest", "ownership_status": "private_single", "acquisition_status": "lapsed", "compensation_status": "fully_paid", "dispute_status": "no_dispute", "ownership_risk": 0, "legal_risk": 1, "compensation_risk": 3, "environmental_risk": 2, "social_risk": 1, "delay_risk": 3, "risk_score": 15.5, "risk_level": "Low", "district": "Nagpur", "state": "Maharashtra", "owner_reference": "OWNER-NH44-011", "notes": "Prototype Dataset", "polygon_coords": [[79.00316414542023, 21.093506508943708], [79.00516414542024, 21.093506508943708], [79.00516414542024, 21.09550650894371], [79.00316414542023, 21.09550650894371], [79.00316414542023, 21.093506508943708]]}}, {"type": "Feature", "geometry": {"type": "Point", "coordinates": [79.72803802376424, 21.387451750364942]}, "properties": {"id": "NH44-012", "project_id": "NH44", "project_name": "NH-44 Expressway Corridor", "latitude": 21.387451750364942, "longitude": 79.72803802376424, "area_hectares": 13.69, "land_type": "forest", "ownership_status": "private_single", "acquisition_status": "in_progress", "compensation_status": "fully_paid", "dispute_status": "no_dispute", "ownership_risk": 0, "legal_risk": 2, "compensation_risk": 3, "environmental_risk": 1, "social_risk": 1, "delay_risk": 0, "risk_score": 13.5, "risk_level": "Low", "district": "Nagpur", "state": "Maharashtra", "owner_reference": "OWNER-NH44-012", "notes": "Prototype Dataset", "polygon_coords": [[79.72703802376424, 21.38645175036494], [79.72903802376425, 21.38645175036494], [79.72903802376425, 21.388451750364943], [79.72703802376424, 21.388451750364943], [79.72703802376424, 21.38645175036494]]}}, {"type": "Feature", "geometry": {"type": "Point", "coordinates": [79.22391149266161, 21.330147985498215]}, "properties": {"id": "NH44-013", "project_id": "NH44", "project_name": "NH-44 Expressway Corridor", "latitude": 21.330147985498215, "longitude": 79.22391149266161, "area_hectares": 6.98, "land_type": "forest", "ownership_status": "private_single", "acquisition_status": "lapsed", "compensation_status": "approved", "dispute_status": "no_dispute", "ownership_risk": 0, "legal_risk": 0, "compensation_risk": 3, "environmental_risk": 1, "social_risk": 1, "delay_risk": 1, "risk_score": 9.5, "risk_level": "Low", "district": "Nagpur", "state": "Maharashtra", "owner_reference": "OWNER-NH44-013", "notes": "Prototype Dataset", "polygon_coords": [[79.22291149266161, 21.329147985498214], [79.22491149266162, 21.329147985498214], [79.22491149266162, 21.331147985498216], [79.22291149266161, 21.331147985498216], [79.22291149266161, 21.329147985498214]]}}, {"type": "Feature", "geometry": {"type": "Point", "coordinates": [79.53586768514549, 21.475586184487995]}, "properties": {"id": "NH44-014", "project_id": "NH44", "project_name": "NH-44 Expressway Corridor", "latitude": 21.475586184487995, "longitude": 79.53586768514549, "area_hectares": 2.81, "land_type": "forest", "ownership_status": "private_single", "acquisition_status": "lapsed", "compensation_status": "assessed", "dispute_status": "no_dispute", "ownership_risk": 2, "legal_risk": 5, "compensation_risk": 2, "environmental_risk": 2, "social_risk": 6, "delay_risk": 5, "risk_score": 34.5, "risk_level": "Medium", "district": "Nagpur", "state": "Maharashtra", "owner_reference": "OWNER-NH44-014", "notes": "Prototype Dataset", "polygon_coords": [[79.53486768514549, 21.474586184487993], [79.5368676851455, 21.474586184487993], [79.5368676851455, 21.476586184487996], [79.53486768514549, 21.476586184487996], [79.53486768514549, 21.474586184487993]]}}, {"type": "Feature", "geometry": {"type": "Point", "coordinates": [79.50706280526265, 21.449860390267396]}, "properties": {"id": "NH44-015", "project_id": "NH44", "project_name": "NH-44 Expressway Corridor", "latitude": 21.449860390267396, "longitude": 79.50706280526265, "area_hectares": 11.11, "land_type": "commercial", "ownership_status": "private_multiple", "acquisition_status": "lapsed", "compensation_status": "not_assessed", "dispute_status": "minor_dispute", "ownership_risk": 9, "legal_risk": 9, "compensation_risk": 7, "environmental_risk": 6, "social_risk": 5, "delay_risk": 7, "risk_score": 75.5, "risk_level": "Critical", "district": "Nagpur", "state": "Maharashtra", "owner_reference": "OWNER-NH44-015", "notes": "Prototype Dataset", "polygon_coords": [[79.50606280526264, 21.448860390267395], [79.50806280526265, 21.448860390267395], [79.50806280526265, 21.450860390267398], [79.50606280526264, 21.450860390267398], [79.50606280526264, 21.448860390267395]]}}, {"type": "Feature", "geometry": {"type": "Point", "coordinates": [79.30840873968152, 21.116726481077034]}, "properties": {"id": "NH44-016", "project_id": "NH44", "project_name": "NH-44 Expressway Corridor", "latitude": 21.116726481077034, "longitude": 79.30840873968152, "area_hectares": 11.77, "land_type": "agricultural", "ownership_status": "private_single", "acquisition_status": "lapsed", "compensation_status": "approved", "dispute_status": "no_dispute", "ownership_risk": 2, "legal_risk": 3, "compensation_risk": 3, "environmental_risk": 2, "social_risk": 3, "delay_risk": 2, "risk_score": 25.5, "risk_level": "Medium", "district": "Nagpur", "state": "Maharashtra", "owner_reference": "OWNER-NH44-016", "notes": "Prototype Dataset", "polygon_coords": [[79.30740873968152, 21.115726481077033], [79.30940873968153, 21.115726481077033], [79.30940873968153, 21.117726481077035], [79.30740873968152, 21.117726481077035], [79.30740873968152, 21.115726481077033]]}}, {"type": "Feature", "geometry": {"type": "Point", "coordinates": [79.36314332876593, 21.430178512586856]}, "properties": {"id": "NH44-017", "project_id": "NH44", "project_name": "NH-44 Expressway Corridor", "latitude": 21.430178512586856, "longitude": 79.36314332876593, "area_hectares": 1.48, "land_type": "forest", "ownership_status": "private_single", "acquisition_status": "not_started", "compensation_status": "fully_paid", "dispute_status": "no_dispute", "ownership_risk": 3, "legal_risk": 2, "compensation_risk": 1, "environmental_risk": 0, "social_risk": 3, "delay_risk": 0, "risk_score": 16.0, "risk_level": "Low", "district": "Nagpur", "state": "Maharashtra", "owner_reference": "OWNER-NH44-017", "notes": "Prototype Dataset", "polygon_coords": [[79.36214332876592, 21.429178512586855], [79.36414332876593, 21.429178512586855], [79.36414332876593, 21.431178512586857], [79.36214332876592, 21.431178512586857], [79.36214332876592, 21.429178512586855]]}}, {"type": "Feature", "geometry": {"type": "Point", "coordinates": [79.13116234615994, 21.280175641970796]}, "properties": {"id": "NH44-018", "project_id": "NH44", "project_name": "NH-44 Expressway Corridor", "latitude": 21.280175641970796, "longitude": 79.13116234615994, "area_hectares": 13.89, "land_type": "industrial", "ownership_status": "disputed", "acquisition_status": "disputed", "compensation_status": "disputed", "dispute_status": "court_case", "ownership_risk": 7, "legal_risk": 7, "compensation_risk": 10, "environmental_risk": 10, "social_risk": 10, "delay_risk": 9, "risk_score": 85.5, "risk_level": "Critical", "district": "Nagpur", "state": "Maharashtra", "owner_reference": "OWNER-NH44-018", "notes": "Prototype Dataset", "polygon_coords": [[79.13016234615993, 21.279175641970795], [79.13216234615994, 21.279175641970795], [79.13216234615994, 21.281175641970798], [79.13016234615993, 21.281175641970798], [79.13016234615993, 21.279175641970795]]}}, {"type": "Feature", "geometry": {"type": "Point", "coordinates": [79.18339271023218, 21.256334972751013]}, "properties": {"id": "NH44-019", "project_id": "NH44", "project_name": "NH-44 Expressway Corridor", "latitude": 21.256334972751013, "longitude": 79.18339271023218, "area_hectares": 7.77, "land_type": "commercial", "ownership_status": "private_single", "acquisition_status": "disputed", "compensation_status": "fully_paid", "dispute_status": "no_dispute", "ownership_risk": 2, "legal_risk": 2, "compensation_risk": 3, "environmental_risk": 2, "social_risk": 2, "delay_risk": 2, "risk_score": 22.0, "risk_level": "Low", "district": "Nagpur", "state": "Maharashtra", "owner_reference": "OWNER-NH44-019", "notes": "Prototype Dataset", "polygon_coords": [[79.18239271023218, 21.25533497275101], [79.18439271023219, 21.25533497275101], [79.18439271023219, 21.257334972751014], [79.18239271023218, 21.257334972751014], [79.18239271023218, 21.25533497275101]]}}, {"type": "Feature", "geometry": {"type": "Point", "coordinates": [79.24622335822849, 21.168364522971476]}, "properties": {"id": "NH44-020", "project_id": "NH44", "project_name": "NH-44 Expressway Corridor", "latitude": 21.168364522971476, "longitude": 79.24622335822849, "area_hectares": 12.58, "land_type": "agricultural", "ownership_status": "private_single", "acquisition_status": "completed", "compensation_status": "partially_paid", "dispute_status": "no_dispute", "ownership_risk": 2, "legal_risk": 5, "compensation_risk": 3, "environmental_risk": 2, "social_risk": 5, "delay_risk": 3, "risk_score": 33.5, "risk_level": "Medium", "district": "Nagpur", "state": "Maharashtra", "owner_reference": "OWNER-NH44-020", "notes": "Prototype Dataset", "polygon_coords": [[79.24522335822849, 21.167364522971475], [79.2472233582285, 21.167364522971475], [79.2472233582285, 21.169364522971478], [79.24522335822849, 21.169364522971478], [79.24522335822849, 21.167364522971475]]}}, {"type": "Feature", "geometry": {"type": "Point", "coordinates": [79.53732923555826, 21.336876779590558]}, "properties": {"id": "NH44-021", "project_id": "NH44", "project_name": "NH-44 Expressway Corridor", "latitude": 21.336876779590558, "longitude": 79.53732923555826, "area_hectares": 12.62, "land_type": "agricultural", "ownership_status": "private_single", "acquisition_status": "in_progress", "compensation_status": "fully_paid", "dispute_status": "no_dispute", "ownership_risk": 2, "legal_risk": 3, "compensation_risk": 1, "environmental_risk": 3, "social_risk": 1, "delay_risk": 0, "risk_score": 19.0, "risk_level": "Low", "district": "Nagpur", "state": "Maharashtra", "owner_reference": "OWNER-NH44-021", "notes": "Prototype Dataset", "polygon_coords": [[79.53632923555826, 21.335876779590556], [79.53832923555827, 21.335876779590556], [79.53832923555827, 21.33787677959056], [79.53632923555826, 21.33787677959056], [79.53632923555826, 21.335876779590556]]}}, {"type": "Feature", "geometry": {"type": "Point", "coordinates": [79.28674605816953, 21.018615705401324]}, "properties": {"id": "NH44-022", "project_id": "NH44", "project_name": "NH-44 Expressway Corridor", "latitude": 21.018615705401324, "longitude": 79.28674605816953, "area_hectares": 6.85, "land_type": "forest", "ownership_status": "private_single", "acquisition_status": "completed", "compensation_status": "partially_paid", "dispute_status": "minor_dispute", "ownership_risk": 6, "legal_risk": 5, "compensation_risk": 4, "environmental_risk": 2, "social_risk": 6, "delay_risk": 4, "risk_score": 45.5, "risk_level": "Medium", "district": "Nagpur", "state": "Maharashtra", "owner_reference": "OWNER-NH44-022", "notes": "Prototype Dataset", "polygon_coords": [[79.28574605816952, 21.017615705401322], [79.28774605816953, 21.017615705401322], [79.28774605816953, 21.019615705401325], [79.28574605816952, 21.019615705401325], [79.28574605816952, 21.017615705401322]]}}, {"type": "Feature", "geometry": {"type": "Point", "coordinates": [79.47165166699943, 21.387624798902912]}, "properties": {"id": "NH44-023", "project_id": "NH44", "project_name": "NH-44 Expressway Corridor", "latitude": 21.387624798902912, "longitude": 79.47165166699943, "area_hectares": 1.61, "land_type": "agricultural", "ownership_status": "disputed", "acquisition_status": "not_started", "compensation_status": "disputed", "dispute_status": "court_case", "ownership_risk": 9, "legal_risk": 10, "compensation_risk": 7, "environmental_risk": 9, "social_risk": 7, "delay_risk": 8, "risk_score": 85.5, "risk_level": "Critical", "district": "Nagpur", "state": "Maharashtra", "owner_reference": "OWNER-NH44-023", "notes": "Prototype Dataset", "polygon_coords": [[79.47065166699943, 21.38662479890291], [79.47265166699944, 21.38662479890291], [79.47265166699944, 21.388624798902914], [79.47065166699943, 21.388624798902914], [79.47065166699943, 21.38662479890291]]}}, {"type": "Feature", "geometry": {"type": "Point", "coordinates": [79.23854556658192, 21.348950690992982]}, "properties": {"id": "NH44-024", "project_id": "NH44", "project_name": "NH-44 Expressway Corridor", "latitude": 21.348950690992982, "longitude": 79.23854556658192, "area_hectares": 9.97, "land_type": "residential", "ownership_status": "private_multiple", "acquisition_status": "in_progress", "compensation_status": "disputed", "dispute_status": "major_dispute", "ownership_risk": 7, "legal_risk": 8, "compensation_risk": 9, "environmental_risk": 9, "social_risk": 5, "delay_risk": 7, "risk_score": 77.5, "risk_level": "Critical", "district": "Nagpur", "state": "Maharashtra", "owner_reference": "OWNER-NH44-024", "notes": "Prototype Dataset", "polygon_coords": [[79.23754556658191, 21.34795069099298], [79.23954556658192, 21.34795069099298], [79.23954556658192, 21.349950690992983], [79.23754556658191, 21.349950690992983], [79.23754556658191, 21.34795069099298]]}}, {"type": "Feature", "geometry": {"type": "Point", "coordinates": [79.28690158322668, 21.484934699873243]}, "properties": {"id": "NH44-025", "project_id": "NH44", "project_name": "NH-44 Expressway Corridor", "latitude": 21.484934699873243, "longitude": 79.28690158322668, "area_hectares": 10.02, "land_type": "forest", "ownership_status": "private_single", "acquisition_status": "lapsed", "compensation_status": "assessed", "dispute_status": "no_dispute", "ownership_risk": 4, "legal_risk": 5, "compensation_risk": 6, "environmental_risk": 5, "social_risk": 4, "delay_risk": 2, "risk_score": 46.0, "risk_level": "Medium", "district": "Nagpur", "state": "Maharashtra", "owner_reference": "OWNER-NH44-025", "notes": "Prototype Dataset", "polygon_coords": [[79.28590158322667, 21.48393469987324], [79.28790158322668, 21.48393469987324], [79.28790158322668, 21.485934699873244], [79.28590158322667, 21.485934699873244], [79.28590158322667, 21.48393469987324]]}}, {"type": "Feature", "geometry": {"type": "Point", "coordinates": [79.54578274643728, 21.279291263943765]}, "properties": {"id": "NH44-026", "project_id": "NH44", "project_name": "NH-44 Expressway Corridor", "latitude": 21.279291263943765, "longitude": 79.54578274643728, "area_hectares": 5.36, "land_type": "commercial", "ownership_status": "private_single", "acquisition_status": "lapsed", "compensation_status": "assessed", "dispute_status": "minor_dispute", "ownership_risk": 5, "legal_risk": 3, "compensation_risk": 2, "environmental_risk": 4, "social_risk": 3, "delay_risk": 6, "risk_score": 36.5, "risk_level": "Medium", "district": "Nagpur", "state": "Maharashtra", "owner_reference": "OWNER-NH44-026", "notes": "Prototype Dataset", "polygon_coords": [[79.54478274643728, 21.278291263943764], [79.54678274643729, 21.278291263943764], [79.54678274643729, 21.280291263943766], [79.54478274643728, 21.280291263943766], [79.54478274643728, 21.278291263943764]]}}, {"type": "Feature", "geometry": {"type": "Point", "coordinates": [79.54281194603914, 21.423118844345996]}, "properties": {"id": "NH44-027", "project_id": "NH44", "project_name": "NH-44 Expressway Corridor", "latitude": 21.423118844345996, "longitude": 79.54281194603914, "area_hectares": 12.97, "land_type": "forest", "ownership_status": "private_single", "acquisition_status": "in_progress", "compensation_status": "approved", "dispute_status": "no_dispute", "ownership_risk": 0, "legal_risk": 3, "compensation_risk": 1, "environmental_risk": 0, "social_risk": 2, "delay_risk": 1, "risk_score": 12.5, "risk_level": "Low", "district": "Nagpur", "state": "Maharashtra", "owner_reference": "OWNER-NH44-027", "notes": "Prototype Dataset", "polygon_coords": [[79.54181194603913, 21.422118844345995], [79.54381194603914, 21.422118844345995], [79.54381194603914, 21.424118844345998], [79.54181194603913, 21.424118844345998], [79.54181194603913, 21.422118844345995]]}}, {"type": "Feature", "geometry": {"type": "Point", "coordinates": [79.31042463392208, 21.412514492364974]}, "properties": {"id": "NH44-028", "project_id": "NH44", "project_name": "NH-44 Expressway Corridor", "latitude": 21.412514492364974, "longitude": 79.31042463392208, "area_hectares": 4.37, "land_type": "agricultural", "ownership_status": "government", "acquisition_status": "disputed", "compensation_status": "approved", "dispute_status": "no_dispute", "ownership_risk": 0, "legal_risk": 2, "compensation_risk": 3, "environmental_risk": 1, "social_risk": 0, "delay_risk": 1, "risk_score": 13.5, "risk_level": "Low", "district": "Nagpur", "state": "Maharashtra", "owner_reference": "OWNER-NH44-028", "notes": "Prototype Dataset", "polygon_coords": [[79.30942463392208, 21.411514492364972], [79.31142463392209, 21.411514492364972], [79.31142463392209, 21.413514492364975], [79.30942463392208, 21.413514492364975], [79.30942463392208, 21.411514492364972]]}}, {"type": "Feature", "geometry": {"type": "Point", "coordinates": [79.03580706064503, 21.23968337124578]}, "properties": {"id": "NH44-029", "project_id": "NH44", "project_name": "NH-44 Expressway Corridor", "latitude": 21.23968337124578, "longitude": 79.03580706064503, "area_hectares": 5.2, "land_type": "agricultural", "ownership_status": "private_single", "acquisition_status": "lapsed", "compensation_status": "assessed", "dispute_status": "minor_dispute", "ownership_risk": 5, "legal_risk": 2, "compensation_risk": 4, "environmental_risk": 4, "social_risk": 6, "delay_risk": 3, "risk_score": 38.0, "risk_level": "Medium", "district": "Nagpur", "state": "Maharashtra", "owner_reference": "OWNER-NH44-029", "notes": "Prototype Dataset", "polygon_coords": [[79.03480706064502, 21.238683371245777], [79.03680706064503, 21.238683371245777], [79.03680706064503, 21.24068337124578], [79.03480706064502, 21.24068337124578], [79.03480706064502, 21.238683371245777]]}}, {"type": "Feature", "geometry": {"type": "Point", "coordinates": [79.12479172614266, 21.29114946190167]}, "properties": {"id": "NH44-030", "project_id": "NH44", "project_name": "NH-44 Expressway Corridor", "latitude": 21.29114946190167, "longitude": 79.12479172614266, "area_hectares": 3.09, "land_type": "residential", "ownership_status": "private_single", "acquisition_status": "lapsed", "compensation_status": "partially_paid", "dispute_status": "no_dispute", "ownership_risk": 5, "legal_risk": 3, "compensation_risk": 2, "environmental_risk": 2, "social_risk": 2, "delay_risk": 5, "risk_score": 31.5, "risk_level": "Medium", "district": "Nagpur", "state": "Maharashtra", "owner_reference": "OWNER-NH44-030", "notes": "Prototype Dataset", "polygon_coords": [[79.12379172614266, 21.29014946190167], [79.12579172614267, 21.29014946190167], [79.12579172614267, 21.292149461901673], [79.12379172614266, 21.292149461901673], [79.12379172614266, 21.29014946190167]]}}, {"type": "Feature", "geometry": {"type": "Point", "coordinates": [79.48726487196137, 21.27766385440039]}, "properties": {"id": "NH44-031", "project_id": "NH44", "project_name": "NH-44 Expressway Corridor", "latitude": 21.27766385440039, "longitude": 79.48726487196137, "area_hectares": 2.73, "land_type": "commercial", "ownership_status": "private_multiple", "acquisition_status": "lapsed", "compensation_status": "disputed", "dispute_status": "minor_dispute", "ownership_risk": 5, "legal_risk": 9, "compensation_risk": 5, "environmental_risk": 5, "social_risk": 9, "delay_risk": 9, "risk_score": 68.0, "risk_level": "High", "district": "Nagpur", "state": "Maharashtra", "owner_reference": "OWNER-NH44-031", "notes": "Prototype Dataset", "polygon_coords": [[79.48626487196137, 21.27666385440039], [79.48826487196138, 21.27666385440039], [79.48826487196138, 21.278663854400392], [79.48626487196137, 21.278663854400392], [79.48626487196137, 21.27666385440039]]}}, {"type": "Feature", "geometry": {"type": "Point", "coordinates": [79.58550033070328, 21.008185182087967]}, "properties": {"id": "NH44-032", "project_id": "NH44", "project_name": "NH-44 Expressway Corridor", "latitude": 21.008185182087967, "longitude": 79.58550033070328, "area_hectares": 2.81, "land_type": "forest", "ownership_status": "private_single", "acquisition_status": "in_progress", "compensation_status": "partially_paid", "dispute_status": "minor_dispute", "ownership_risk": 3, "legal_risk": 4, "compensation_risk": 4, "environmental_risk": 6, "social_risk": 5, "delay_risk": 2, "risk_score": 40.0, "risk_level": "Medium", "district": "Nagpur", "state": "Maharashtra", "owner_reference": "OWNER-NH44-032", "notes": "Prototype Dataset", "polygon_coords": [[79.58450033070328, 21.007185182087966], [79.58650033070329, 21.007185182087966], [79.58650033070329, 21.00918518208797], [79.58450033070328, 21.00918518208797], [79.58450033070328, 21.007185182087966]]}}, {"type": "Feature", "geometry": {"type": "Point", "coordinates": [79.59499662629729, 21.44661436797715]}, "properties": {"id": "NH44-033", "project_id": "NH44", "project_name": "NH-44 Expressway Corridor", "latitude": 21.44661436797715, "longitude": 79.59499662629729, "area_hectares": 12.09, "land_type": "agricultural", "ownership_status": "private_multiple", "acquisition_status": "disputed", "compensation_status": "disputed", "dispute_status": "major_dispute", "ownership_risk": 8, "legal_risk": 8, "compensation_risk": 9, "environmental_risk": 5, "social_risk": 5, "delay_risk": 5, "risk_score": 71.5, "risk_level": "High", "district": "Nagpur", "state": "Maharashtra", "owner_reference": "OWNER-NH44-033", "notes": "Prototype Dataset", "polygon_coords": [[79.59399662629728, 21.44561436797715], [79.59599662629729, 21.44561436797715], [79.59599662629729, 21.447614367977152], [79.59399662629728, 21.447614367977152], [79.59399662629728, 21.44561436797715]]}}, {"type": "Feature", "geometry": {"type": "Point", "coordinates": [79.39269127351217, 21.248338409107312]}, "properties": {"id": "NH44-034", "project_id": "NH44", "project_name": "NH-44 Expressway Corridor", "latitude": 21.248338409107312, "longitude": 79.39269127351217, "area_hectares": 1.99, "land_type": "commercial", "ownership_status": "government", "acquisition_status": "in_progress", "compensation_status": "fully_paid", "dispute_status": "no_dispute", "ownership_risk": 1, "legal_risk": 1, "compensation_risk": 2, "environmental_risk": 2, "social_risk": 2, "delay_risk": 3, "risk_score": 16.5, "risk_level": "Low", "district": "Nagpur", "state": "Maharashtra", "owner_reference": "OWNER-NH44-034", "notes": "Prototype Dataset", "polygon_coords": [[79.39169127351217, 21.24733840910731], [79.39369127351218, 21.24733840910731], [79.39369127351218, 21.249338409107313], [79.39169127351217, 21.249338409107313], [79.39169127351217, 21.24733840910731]]}}, {"type": "Feature", "geometry": {"type": "Point", "coordinates": [79.6294926313522, 21.490774246281237]}, "properties": {"id": "NH44-035", "project_id": "NH44", "project_name": "NH-44 Expressway Corridor", "latitude": 21.490774246281237, "longitude": 79.6294926313522, "area_hectares": 8.3, "land_type": "agricultural", "ownership_status": "private_single", "acquisition_status": "in_progress", "compensation_status": "approved", "dispute_status": "no_dispute", "ownership_risk": 2, "legal_risk": 0, "compensation_risk": 2, "environmental_risk": 3, "social_risk": 1, "delay_risk": 1, "risk_score": 14.5, "risk_level": "Low", "district": "Nagpur", "state": "Maharashtra", "owner_reference": "OWNER-NH44-035", "notes": "Prototype Dataset", "polygon_coords": [[79.6284926313522, 21.489774246281236], [79.63049263135221, 21.489774246281236], [79.63049263135221, 21.49177424628124], [79.6284926313522, 21.49177424628124], [79.6284926313522, 21.489774246281236]]}}, {"type": "Feature", "geometry": {"type": "Point", "coordinates": [79.26674702525521, 21.247887723718335]}, "properties": {"id": "NH44-036", "project_id": "NH44", "project_name": "NH-44 Expressway Corridor", "latitude": 21.247887723718335, "longitude": 79.26674702525521, "area_hectares": 10.74, "land_type": "commercial", "ownership_status": "government", "acquisition_status": "disputed", "compensation_status": "fully_paid", "dispute_status": "no_dispute", "ownership_risk": 2, "legal_risk": 1, "compensation_risk": 1, "environmental_risk": 2, "social_risk": 3, "delay_risk": 1, "risk_score": 15.5, "risk_level": "Low", "district": "Nagpur", "state": "Maharashtra", "owner_reference": "OWNER-NH44-036", "notes": "Prototype Dataset", "polygon_coords": [[79.26574702525521, 21.246887723718334], [79.26774702525522, 21.246887723718334], [79.26774702525522, 21.248887723718337], [79.26574702525521, 21.248887723718337], [79.26574702525521, 21.246887723718334]]}}, {"type": "Feature", "geometry": {"type": "Point", "coordinates": [79.7652125769785, 21.17799448325034]}, "properties": {"id": "NH44-037", "project_id": "NH44", "project_name": "NH-44 Expressway Corridor", "latitude": 21.17799448325034, "longitude": 79.7652125769785, "area_hectares": 1.6, "land_type": "residential", "ownership_status": "private_single", "acquisition_status": "lapsed", "compensation_status": "partially_paid", "dispute_status": "minor_dispute", "ownership_risk": 5, "legal_risk": 5, "compensation_risk": 2, "environmental_risk": 2, "social_risk": 3, "delay_risk": 6, "risk_score": 38.5, "risk_level": "Medium", "district": "Nagpur", "state": "Maharashtra", "owner_reference": "OWNER-NH44-037", "notes": "Prototype Dataset", "polygon_coords": [[79.7642125769785, 21.17699448325034], [79.7662125769785, 21.17699448325034], [79.7662125769785, 21.178994483250342], [79.7642125769785, 21.178994483250342], [79.7642125769785, 21.17699448325034]]}}, {"type": "Feature", "geometry": {"type": "Point", "coordinates": [79.15820368170398, 21.050771980359617]}, "properties": {"id": "NH44-038", "project_id": "NH44", "project_name": "NH-44 Expressway Corridor", "latitude": 21.050771980359617, "longitude": 79.15820368170398, "area_hectares": 1.53, "land_type": "industrial", "ownership_status": "government", "acquisition_status": "not_started", "compensation_status": "fully_paid", "dispute_status": "no_dispute", "ownership_risk": 1, "legal_risk": 3, "compensation_risk": 2, "environmental_risk": 2, "social_risk": 2, "delay_risk": 1, "risk_score": 19.5, "risk_level": "Low", "district": "Nagpur", "state": "Maharashtra", "owner_reference": "OWNER-NH44-038", "notes": "Prototype Dataset", "polygon_coords": [[79.15720368170398, 21.049771980359615], [79.15920368170399, 21.049771980359615], [79.15920368170399, 21.051771980359618], [79.15720368170398, 21.051771980359618], [79.15720368170398, 21.049771980359615]]}}, {"type": "Feature", "geometry": {"type": "Point", "coordinates": [79.7135210566076, 21.195172107331455]}, "properties": {"id": "NH44-039", "project_id": "NH44", "project_name": "NH-44 Expressway Corridor", "latitude": 21.195172107331455, "longitude": 79.7135210566076, "area_hectares": 1.51, "land_type": "agricultural", "ownership_status": "disputed", "acquisition_status": "disputed", "compensation_status": "disputed", "dispute_status": "court_case", "ownership_risk": 10, "legal_risk": 9, "compensation_risk": 10, "environmental_risk": 10, "social_risk": 7, "delay_risk": 10, "risk_score": 94.5, "risk_level": "Critical", "district": "Nagpur", "state": "Maharashtra", "owner_reference": "OWNER-NH44-039", "notes": "Prototype Dataset", "polygon_coords": [[79.7125210566076, 21.194172107331454], [79.71452105660761, 21.194172107331454], [79.71452105660761, 21.196172107331456], [79.7125210566076, 21.196172107331456], [79.7125210566076, 21.194172107331454]]}}, {"type": "Feature", "geometry": {"type": "Point", "coordinates": [79.06951365501637, 21.275488272891042]}, "properties": {"id": "NH44-040", "project_id": "NH44", "project_name": "NH-44 Expressway Corridor", "latitude": 21.275488272891042, "longitude": 79.06951365501637, "area_hectares": 13.58, "land_type": "commercial", "ownership_status": "private_single", "acquisition_status": "in_progress", "compensation_status": "fully_paid", "dispute_status": "no_dispute", "ownership_risk": 2, "legal_risk": 2, "compensation_risk": 3, "environmental_risk": 3, "social_risk": 2, "delay_risk": 2, "risk_score": 23.5, "risk_level": "Low", "district": "Nagpur", "state": "Maharashtra", "owner_reference": "OWNER-NH44-040", "notes": "Prototype Dataset", "polygon_coords": [[79.06851365501636, 21.27448827289104], [79.07051365501637, 21.27448827289104], [79.07051365501637, 21.276488272891044], [79.06851365501636, 21.276488272891044], [79.06851365501636, 21.27448827289104]]}}, {"type": "Feature", "geometry": {"type": "Point", "coordinates": [79.35789944037181, 21.310048360844622]}, "properties": {"id": "NH44-041", "project_id": "NH44", "project_name": "NH-44 Expressway Corridor", "latitude": 21.310048360844622, "longitude": 79.35789944037181, "area_hectares": 1.8, "land_type": "commercial", "ownership_status": "government", "acquisition_status": "disputed", "compensation_status": "approved", "dispute_status": "no_dispute", "ownership_risk": 2, "legal_risk": 2, "compensation_risk": 3, "environmental_risk": 3, "social_risk": 2, "delay_risk": 3, "risk_score": 24.5, "risk_level": "Low", "district": "Nagpur", "state": "Maharashtra", "owner_reference": "OWNER-NH44-041", "notes": "Prototype Dataset", "polygon_coords": [[79.3568994403718, 21.30904836084462], [79.35889944037181, 21.30904836084462], [79.35889944037181, 21.311048360844623], [79.3568994403718, 21.311048360844623], [79.3568994403718, 21.30904836084462]]}}, {"type": "Feature", "geometry": {"type": "Point", "coordinates": [79.3697668164051, 21.34111960690428]}, "properties": {"id": "NH44-042", "project_id": "NH44", "project_name": "NH-44 Expressway Corridor", "latitude": 21.34111960690428, "longitude": 79.3697668164051, "area_hectares": 6.9, "land_type": "residential", "ownership_status": "disputed", "acquisition_status": "in_progress", "compensation_status": "disputed", "dispute_status": "court_case", "ownership_risk": 9, "legal_risk": 10, "compensation_risk": 10, "environmental_risk": 10, "social_risk": 7, "delay_risk": 10, "risk_score": 95.0, "risk_level": "Critical", "district": "Nagpur", "state": "Maharashtra", "owner_reference": "OWNER-NH44-042", "notes": "Prototype Dataset", "polygon_coords": [[79.3687668164051, 21.340119606904278], [79.37076681640511, 21.340119606904278], [79.37076681640511, 21.34211960690428], [79.3687668164051, 21.34211960690428], [79.3687668164051, 21.340119606904278]]}}, {"type": "Feature", "geometry": {"type": "Point", "coordinates": [79.67646251368821, 21.136184383071036]}, "properties": {"id": "NH44-043", "project_id": "NH44", "project_name": "NH-44 Expressway Corridor", "latitude": 21.136184383071036, "longitude": 79.67646251368821, "area_hectares": 1.34, "land_type": "industrial", "ownership_status": "disputed", "acquisition_status": "in_progress", "compensation_status": "disputed", "dispute_status": "court_case", "ownership_risk": 8, "legal_risk": 10, "compensation_risk": 8, "environmental_risk": 10, "social_risk": 10, "delay_risk": 10, "risk_score": 92.0, "risk_level": "Critical", "district": "Nagpur", "state": "Maharashtra", "owner_reference": "OWNER-NH44-043", "notes": "Prototype Dataset", "polygon_coords": [[79.6754625136882, 21.135184383071035], [79.67746251368821, 21.135184383071035], [79.67746251368821, 21.137184383071038], [79.6754625136882, 21.137184383071038], [79.6754625136882, 21.135184383071035]]}}, {"type": "Feature", "geometry": {"type": "Point", "coordinates": [79.43584586331062, 21.14244817397248]}, "properties": {"id": "NH44-044", "project_id": "NH44", "project_name": "NH-44 Expressway Corridor", "latitude": 21.14244817397248, "longitude": 79.43584586331062, "area_hectares": 4.27, "land_type": "industrial", "ownership_status": "private_single", "acquisition_status": "lapsed", "compensation_status": "assessed", "dispute_status": "minor_dispute", "ownership_risk": 6, "legal_risk": 4, "compensation_risk": 6, "environmental_risk": 6, "social_risk": 6, "delay_risk": 3, "risk_score": 52.0, "risk_level": "High", "district": "Nagpur", "state": "Maharashtra", "owner_reference": "OWNER-NH44-044", "notes": "Prototype Dataset", "polygon_coords": [[79.43484586331061, 21.141448173972478], [79.43684586331062, 21.141448173972478], [79.43684586331062, 21.14344817397248], [79.43484586331061, 21.14344817397248], [79.43484586331061, 21.141448173972478]]}}, {"type": "Feature", "geometry": {"type": "Point", "coordinates": [79.21287473995014, 21.125267982319432]}, "properties": {"id": "NH44-045", "project_id": "NH44", "project_name": "NH-44 Expressway Corridor", "latitude": 21.125267982319432, "longitude": 79.21287473995014, "area_hectares": 6.63, "land_type": "forest", "ownership_status": "government", "acquisition_status": "in_progress", "compensation_status": "fully_paid", "dispute_status": "no_dispute", "ownership_risk": 3, "legal_risk": 0, "compensation_risk": 1, "environmental_risk": 2, "social_risk": 1, "delay_risk": 3, "risk_score": 15.0, "risk_level": "Low", "district": "Nagpur", "state": "Maharashtra", "owner_reference": "OWNER-NH44-045", "notes": "Prototype Dataset", "polygon_coords": [[79.21187473995013, 21.12426798231943], [79.21387473995014, 21.12426798231943], [79.21387473995014, 21.126267982319433], [79.21187473995013, 21.126267982319433], [79.21187473995013, 21.12426798231943]]}}, {"type": "Feature", "geometry": {"type": "Point", "coordinates": [79.44070231390684, 21.314449177210438]}, "properties": {"id": "NH44-046", "project_id": "NH44", "project_name": "NH-44 Expressway Corridor", "latitude": 21.314449177210438, "longitude": 79.44070231390684, "area_hectares": 10.08, "land_type": "industrial", "ownership_status": "disputed", "acquisition_status": "disputed", "compensation_status": "disputed", "dispute_status": "court_case", "ownership_risk": 10, "legal_risk": 8, "compensation_risk": 7, "environmental_risk": 9, "social_risk": 8, "delay_risk": 8, "risk_score": 83.5, "risk_level": "Critical", "district": "Nagpur", "state": "Maharashtra", "owner_reference": "OWNER-NH44-046", "notes": "Prototype Dataset", "polygon_coords": [[79.43970231390684, 21.313449177210437], [79.44170231390684, 21.313449177210437], [79.44170231390684, 21.31544917721044], [79.43970231390684, 21.31544917721044], [79.43970231390684, 21.313449177210437]]}}, {"type": "Feature", "geometry": {"type": "Point", "coordinates": [79.18714796380692, 21.450365927428095]}, "properties": {"id": "NH44-047", "project_id": "NH44", "project_name": "NH-44 Expressway Corridor", "latitude": 21.450365927428095, "longitude": 79.18714796380692, "area_hectares": 5.84, "land_type": "industrial", "ownership_status": "private_single", "acquisition_status": "completed", "compensation_status": "assessed", "dispute_status": "minor_dispute", "ownership_risk": 3, "legal_risk": 3, "compensation_risk": 3, "environmental_risk": 3, "social_risk": 6, "delay_risk": 6, "risk_score": 36.0, "risk_level": "Medium", "district": "Nagpur", "state": "Maharashtra", "owner_reference": "OWNER-NH44-047", "notes": "Prototype Dataset", "polygon_coords": [[79.18614796380692, 21.449365927428094], [79.18814796380693, 21.449365927428094], [79.18814796380693, 21.451365927428096], [79.18614796380692, 21.451365927428096], [79.18614796380692, 21.449365927428094]]}}, {"type": "Feature", "geometry": {"type": "Point", "coordinates": [79.17663250746622, 21.375914510732464]}, "properties": {"id": "NH44-048", "project_id": "NH44", "project_name": "NH-44 Expressway Corridor", "latitude": 21.375914510732464, "longitude": 79.17663250746622, "area_hectares": 9.29, "land_type": "agricultural", "ownership_status": "private_multiple", "acquisition_status": "not_started", "compensation_status": "not_assessed", "dispute_status": "major_dispute", "ownership_risk": 5, "legal_risk": 8, "compensation_risk": 6, "environmental_risk": 5, "social_risk": 9, "delay_risk": 7, "risk_score": 65.5, "risk_level": "High", "district": "Nagpur", "state": "Maharashtra", "owner_reference": "OWNER-NH44-048", "notes": "Prototype Dataset", "polygon_coords": [[79.17563250746622, 21.374914510732463], [79.17763250746623, 21.374914510732463], [79.17763250746623, 21.376914510732465], [79.17563250746622, 21.376914510732465], [79.17563250746622, 21.374914510732463]]}}, {"type": "Feature", "geometry": {"type": "Point", "coordinates": [79.60282042106364, 21.00227447461085]}, "properties": {"id": "NH44-049", "project_id": "NH44", "project_name": "NH-44 Expressway Corridor", "latitude": 21.00227447461085, "longitude": 79.60282042106364, "area_hectares": 6.45, "land_type": "industrial", "ownership_status": "disputed", "acquisition_status": "completed", "compensation_status": "disputed", "dispute_status": "court_case", "ownership_risk": 10, "legal_risk": 10, "compensation_risk": 7, "environmental_risk": 10, "social_risk": 7, "delay_risk": 10, "risk_score": 91.0, "risk_level": "Critical", "district": "Nagpur", "state": "Maharashtra", "owner_reference": "OWNER-NH44-049", "notes": "Prototype Dataset", "polygon_coords": [[79.60182042106364, 21.00127447461085], [79.60382042106365, 21.00127447461085], [79.60382042106365, 21.00327447461085], [79.60182042106364, 21.00327447461085], [79.60182042106364, 21.00127447461085]]}}, {"type": "Feature", "geometry": {"type": "Point", "coordinates": [79.13662106630827, 21.44432198146817]}, "properties": {"id": "NH44-050", "project_id": "NH44", "project_name": "NH-44 Expressway Corridor", "latitude": 21.44432198146817, "longitude": 79.13662106630827, "area_hectares": 13.5, "land_type": "industrial", "ownership_status": "private_single", "acquisition_status": "completed", "compensation_status": "assessed", "dispute_status": "minor_dispute", "ownership_risk": 4, "legal_risk": 5, "compensation_risk": 5, "environmental_risk": 5, "social_risk": 4, "delay_risk": 3, "risk_score": 45.0, "risk_level": "Medium", "district": "Nagpur", "state": "Maharashtra", "owner_reference": "OWNER-NH44-050", "notes": "Prototype Dataset", "polygon_coords": [[79.13562106630826, 21.44332198146817], [79.13762106630827, 21.44332198146817], [79.13762106630827, 21.445321981468172], [79.13562106630826, 21.445321981468172], [79.13562106630826, 21.44332198146817]]}}, {"type": "Feature", "geometry": {"type": "Point", "coordinates": [79.20259218513318, 21.114849468279484]}, "properties": {"id": "NH44-051", "project_id": "NH44", "project_name": "NH-44 Expressway Corridor", "latitude": 21.114849468279484, "longitude": 79.20259218513318, "area_hectares": 9.73, "land_type": "commercial", "ownership_status": "disputed", "acquisition_status": "not_started", "compensation_status": "disputed", "dispute_status": "court_case", "ownership_risk": 7, "legal_risk": 10, "compensation_risk": 8, "environmental_risk": 9, "social_risk": 9, "delay_risk": 10, "risk_score": 87.5, "risk_level": "Critical", "district": "Nagpur", "state": "Maharashtra", "owner_reference": "OWNER-NH44-051", "notes": "Prototype Dataset", "polygon_coords": [[79.20159218513318, 21.113849468279483], [79.20359218513319, 21.113849468279483], [79.20359218513319, 21.115849468279485], [79.20159218513318, 21.115849468279485], [79.20159218513318, 21.113849468279483]]}}, {"type": "Feature", "geometry": {"type": "Point", "coordinates": [79.33137851779817, 21.435923992838795]}, "properties": {"id": "NH44-052", "project_id": "NH44", "project_name": "NH-44 Expressway Corridor", "latitude": 21.435923992838795, "longitude": 79.33137851779817, "area_hectares": 4.79, "land_type": "residential", "ownership_status": "government", "acquisition_status": "completed", "compensation_status": "approved", "dispute_status": "no_dispute", "ownership_risk": 3, "legal_risk": 3, "compensation_risk": 1, "environmental_risk": 2, "social_risk": 3, "delay_risk": 1, "risk_score": 22.5, "risk_level": "Low", "district": "Nagpur", "state": "Maharashtra", "owner_reference": "OWNER-NH44-052", "notes": "Prototype Dataset", "polygon_coords": [[79.33037851779817, 21.434923992838794], [79.33237851779818, 21.434923992838794], [79.33237851779818, 21.436923992838796], [79.33037851779817, 21.436923992838796], [79.33037851779817, 21.434923992838794]]}}, {"type": "Feature", "geometry": {"type": "Point", "coordinates": [79.34050652244706, 21.26567411563547]}, "properties": {"id": "NH44-053", "project_id": "NH44", "project_name": "NH-44 Expressway Corridor", "latitude": 21.26567411563547, "longitude": 79.34050652244706, "area_hectares": 1.66, "land_type": "forest", "ownership_status": "private_single", "acquisition_status": "in_progress", "compensation_status": "fully_paid", "dispute_status": "no_dispute", "ownership_risk": 3, "legal_risk": 2, "compensation_risk": 0, "environmental_risk": 0, "social_risk": 3, "delay_risk": 1, "risk_score": 15.0, "risk_level": "Low", "district": "Nagpur", "state": "Maharashtra", "owner_reference": "OWNER-NH44-053", "notes": "Prototype Dataset", "polygon_coords": [[79.33950652244705, 21.26467411563547], [79.34150652244706, 21.26467411563547], [79.34150652244706, 21.26667411563547], [79.33950652244705, 21.26667411563547], [79.33950652244705, 21.26467411563547]]}}, {"type": "Feature", "geometry": {"type": "Point", "coordinates": [79.47397190247764, 21.078313052151607]}, "properties": {"id": "NH44-054", "project_id": "NH44", "project_name": "NH-44 Expressway Corridor", "latitude": 21.078313052151607, "longitude": 79.47397190247764, "area_hectares": 2.95, "land_type": "industrial", "ownership_status": "private_multiple", "acquisition_status": "disputed", "compensation_status": "disputed", "dispute_status": "minor_dispute", "ownership_risk": 7, "legal_risk": 8, "compensation_risk": 6, "environmental_risk": 6, "social_risk": 9, "delay_risk": 5, "risk_score": 69.0, "risk_level": "High", "district": "Nagpur", "state": "Maharashtra", "owner_reference": "OWNER-NH44-054", "notes": "Prototype Dataset", "polygon_coords": [[79.47297190247764, 21.077313052151606], [79.47497190247765, 21.077313052151606], [79.47497190247765, 21.07931305215161], [79.47297190247764, 21.07931305215161], [79.47297190247764, 21.077313052151606]]}}, {"type": "Feature", "geometry": {"type": "Point", "coordinates": [79.0833546288062, 21.264151006006536]}, "properties": {"id": "NH44-055", "project_id": "NH44", "project_name": "NH-44 Expressway Corridor", "latitude": 21.264151006006536, "longitude": 79.0833546288062, "area_hectares": 4.67, "land_type": "forest", "ownership_status": "disputed", "acquisition_status": "completed", "compensation_status": "disputed", "dispute_status": "court_case", "ownership_risk": 9, "legal_risk": 7, "compensation_risk": 10, "environmental_risk": 8, "social_risk": 10, "delay_risk": 9, "risk_score": 86.5, "risk_level": "Critical", "district": "Nagpur", "state": "Maharashtra", "owner_reference": "OWNER-NH44-055", "notes": "Prototype Dataset", "polygon_coords": [[79.0823546288062, 21.263151006006535], [79.08435462880621, 21.263151006006535], [79.08435462880621, 21.265151006006537], [79.0823546288062, 21.265151006006537], [79.0823546288062, 21.263151006006535]]}}, {"type": "Feature", "geometry": {"type": "Point", "coordinates": [79.65885380911703, 21.028246011233215]}, "properties": {"id": "NH44-056", "project_id": "NH44", "project_name": "NH-44 Expressway Corridor", "latitude": 21.028246011233215, "longitude": 79.65885380911703, "area_hectares": 8.95, "land_type": "forest", "ownership_status": "private_single", "acquisition_status": "completed", "compensation_status": "partially_paid", "dispute_status": "no_dispute", "ownership_risk": 3, "legal_risk": 5, "compensation_risk": 3, "environmental_risk": 6, "social_risk": 4, "delay_risk": 6, "risk_score": 43.5, "risk_level": "Medium", "district": "Nagpur", "state": "Maharashtra", "owner_reference": "OWNER-NH44-056", "notes": "Prototype Dataset", "polygon_coords": [[79.65785380911703, 21.027246011233213], [79.65985380911704, 21.027246011233213], [79.65985380911704, 21.029246011233216], [79.65785380911703, 21.029246011233216], [79.65785380911703, 21.027246011233213]]}}, {"type": "Feature", "geometry": {"type": "Point", "coordinates": [79.54646135300979, 21.139173706581595]}, "properties": {"id": "NH44-057", "project_id": "NH44", "project_name": "NH-44 Expressway Corridor", "latitude": 21.139173706581595, "longitude": 79.54646135300979, "area_hectares": 7.6, "land_type": "residential", "ownership_status": "private_single", "acquisition_status": "in_progress", "compensation_status": "partially_paid", "dispute_status": "no_dispute", "ownership_risk": 2, "legal_risk": 5, "compensation_risk": 2, "environmental_risk": 6, "social_risk": 6, "delay_risk": 4, "risk_score": 39.5, "risk_level": "Medium", "district": "Nagpur", "state": "Maharashtra", "owner_reference": "OWNER-NH44-057", "notes": "Prototype Dataset", "polygon_coords": [[79.54546135300978, 21.138173706581593], [79.5474613530098, 21.138173706581593], [79.5474613530098, 21.140173706581596], [79.54546135300978, 21.140173706581596], [79.54546135300978, 21.138173706581593]]}}, {"type": "Feature", "geometry": {"type": "Point", "coordinates": [79.1165419956477, 21.030263787246945]}, "properties": {"id": "NH44-058", "project_id": "NH44", "project_name": "NH-44 Expressway Corridor", "latitude": 21.030263787246945, "longitude": 79.1165419956477, "area_hectares": 0.71, "land_type": "forest", "ownership_status": "private_multiple", "acquisition_status": "not_started", "compensation_status": "disputed", "dispute_status": "major_dispute", "ownership_risk": 5, "legal_risk": 9, "compensation_risk": 9, "environmental_risk": 7, "social_risk": 7, "delay_risk": 8, "risk_score": 76.0, "risk_level": "Critical", "district": "Nagpur", "state": "Maharashtra", "owner_reference": "OWNER-NH44-058", "notes": "Prototype Dataset", "polygon_coords": [[79.11554199564769, 21.029263787246943], [79.1175419956477, 21.029263787246943], [79.1175419956477, 21.031263787246946], [79.11554199564769, 21.031263787246946], [79.11554199564769, 21.029263787246943]]}}, {"type": "Feature", "geometry": {"type": "Point", "coordinates": [79.27581374481379, 21.329060592224543]}, "properties": {"id": "NH44-059", "project_id": "NH44", "project_name": "NH-44 Expressway Corridor", "latitude": 21.329060592224543, "longitude": 79.27581374481379, "area_hectares": 3.62, "land_type": "commercial", "ownership_status": "government", "acquisition_status": "lapsed", "compensation_status": "approved", "dispute_status": "no_dispute", "ownership_risk": 0, "legal_risk": 2, "compensation_risk": 3, "environmental_risk": 0, "social_risk": 3, "delay_risk": 3, "risk_score": 17.0, "risk_level": "Low", "district": "Nagpur", "state": "Maharashtra", "owner_reference": "OWNER-NH44-059", "notes": "Prototype Dataset", "polygon_coords": [[79.27481374481378, 21.328060592224542], [79.2768137448138, 21.328060592224542], [79.2768137448138, 21.330060592224545], [79.27481374481378, 21.330060592224545], [79.27481374481378, 21.328060592224542]]}}, {"type": "Feature", "geometry": {"type": "Point", "coordinates": [79.03378641085293, 21.19374280300089]}, "properties": {"id": "NH44-060", "project_id": "NH44", "project_name": "NH-44 Expressway Corridor", "latitude": 21.19374280300089, "longitude": 79.03378641085293, "area_hectares": 12.04, "land_type": "forest", "ownership_status": "private_multiple", "acquisition_status": "lapsed", "compensation_status": "not_assessed", "dispute_status": "minor_dispute", "ownership_risk": 9, "legal_risk": 7, "compensation_risk": 9, "environmental_risk": 5, "social_risk": 9, "delay_risk": 7, "risk_score": 77.0, "risk_level": "Critical", "district": "Nagpur", "state": "Maharashtra", "owner_reference": "OWNER-NH44-060", "notes": "Prototype Dataset", "polygon_coords": [[79.03278641085292, 21.19274280300089], [79.03478641085293, 21.19274280300089], [79.03478641085293, 21.194742803000892], [79.03278641085292, 21.194742803000892], [79.03278641085292, 21.19274280300089]]}}]}